NAME;SOCR;Region;Area;City;Settlement;Street;Level;Type
Кошехабльский;р-н;0001;002;000;000;0000;Area;201
Красногвардейский;р-н;0001;003;000;000;0000;Area;201
Майкопский;р-н;0001;004;000;000;0000;Area;201
Тахтамукайский;р-н;0001;005;000;000;0000;Area;201
Теучежский;р-н;0001;006;000;000;0000;Area;201
Шовгеновский;р-н;0001;007;000;000;0000;Area;201
Гиагинский;р-н;0001;008;000;000;0000;Area;201
Уфимский;р-н;0002;001;000;000;0000;Area;201
Альшеевский;р-н;0002;002;000;000;0000;Area;201
Архангельский;р-н;0002;003;000;000;0000;Area;201
Аскинский;р-н;0002;004;000;000;0000;Area;201
Аургазинский;р-н;0002;005;000;000;0000;Area;201
Баймакский;р-н;0002;006;000;000;0000;Area;201
Бакалинский;р-н;0002;007;000;000;0000;Area;201
Балтачевский;р-н;0002;008;000;000;0000;Area;201
Белебеевский;р-н;0002;009;000;000;0000;Area;201
Белокатайский;р-н;0002;010;000;000;0000;Area;201
Белорецкий;р-н;0002;011;000;000;0000;Area;201
Бижбулякский;р-н;0002;012;000;000;0000;Area;201
Бирский;р-н;0002;013;000;000;0000;Area;201
Благоварский;р-н;0002;014;000;000;0000;Area;201
Благовещенский;р-н;0002;015;000;000;0000;Area;201
Буздякский;р-н;0002;016;000;000;0000;Area;201
Бураевский;р-н;0002;017;000;000;0000;Area;201
Бурзянский;р-н;0002;018;000;000;0000;Area;201
Гафурийский;р-н;0002;019;000;000;0000;Area;201
Дуванский;р-н;0002;020;000;000;0000;Area;201
Ермекеевский;р-н;0002;021;000;000;0000;Area;201
Зианчуринский;р-н;0002;022;000;000;0000;Area;201
Зилаирский;р-н;0002;023;000;000;0000;Area;201
Иглинский;р-н;0002;024;000;000;0000;Area;201
Илишевский;р-н;0002;025;000;000;0000;Area;201
Ишимбайский;р-н;0002;026;000;000;0000;Area;201
Калтасинский;р-н;0002;027;000;000;0000;Area;201
Караидельский;р-н;0002;028;000;000;0000;Area;201
Кармаскалинский;р-н;0002;029;000;000;0000;Area;201
Кигинский;р-н;0002;030;000;000;0000;Area;201
Краснокамский;р-н;0002;031;000;000;0000;Area;201
Кугарчинский;р-н;0002;032;000;000;0000;Area;201
Куюргазинский;р-н;0002;033;000;000;0000;Area;201
Кушнаренковский;р-н;0002;034;000;000;0000;Area;201
Мелеузовский;р-н;0002;035;000;000;0000;Area;201
Мечетлинский;р-н;0002;036;000;000;0000;Area;201
Мишкинский;р-н;0002;037;000;000;0000;Area;201
Миякинский;р-н;0002;038;000;000;0000;Area;201
Нуримановский;р-н;0002;039;000;000;0000;Area;201
Салаватский;р-н;0002;040;000;000;0000;Area;201
Стерлибашевский;р-н;0002;041;000;000;0000;Area;201
Стерлитамакский;р-н;0002;042;000;000;0000;Area;201
Татышлинский;р-н;0002;043;000;000;0000;Area;201
Туймазинский;р-н;0002;044;000;000;0000;Area;201
Учалинский;р-н;0002;046;000;000;0000;Area;201
Федоровский;р-н;0002;047;000;000;0000;Area;201
Хайбуллинский;р-н;0002;048;000;000;0000;Area;201
Чекмагушевский;р-н;0002;049;000;000;0000;Area;201
Чишминский;р-н;0002;050;000;000;0000;Area;201
Шаранский;р-н;0002;051;000;000;0000;Area;201
Янаульский;р-н;0002;052;000;000;0000;Area;201
Абзелиловский;р-н;0002;053;000;000;0000;Area;201
Давлекановский;р-н;0002;059;000;000;0000;Area;201
Дюртюлинский;р-н;0002;060;000;000;0000;Area;201
Баунтовский эвенкийский;р-н;0003;002;000;000;0000;Area;201
Бичурский;р-н;0003;003;000;000;0000;Area;201
Джидинский;р-н;0003;004;000;000;0000;Area;201
Еравнинский;р-н;0003;005;000;000;0000;Area;201
Заиграевский;р-н;0003;006;000;000;0000;Area;201
Закаменский;р-н;0003;007;000;000;0000;Area;201
Иволгинский;р-н;0003;008;000;000;0000;Area;201
Кабанский;р-н;0003;009;000;000;0000;Area;201
Кижингинский;р-н;0003;010;000;000;0000;Area;201
Курумканский;р-н;0003;011;000;000;0000;Area;201
Кяхтинский;р-н;0003;012;000;000;0000;Area;201
Муйский;р-н;0003;013;000;000;0000;Area;201
Мухоршибирский;р-н;0003;014;000;000;0000;Area;201
Окинский;р-н;0003;015;000;000;0000;Area;201
Прибайкальский;р-н;0003;016;000;000;0000;Area;201
Северо-Байкальский;р-н;0003;017;000;000;0000;Area;201
Северобайкальский;р-н;0003;017;000;000;0000;Area;201
Селенгинский;р-н;0003;018;000;000;0000;Area;201
Тарбагатайский;р-н;0003;019;000;000;0000;Area;201
Тункинский;р-н;0003;020;000;000;0000;Area;201
Хоринский;р-н;0003;021;000;000;0000;Area;201
Баргузинский;р-н;0003;022;000;000;0000;Area;201
Кош-Агачский;р-н;0004;002;000;000;0000;Area;201
Майминский;р-н;0004;003;000;000;0000;Area;201
Онгудайский;р-н;0004;004;000;000;0000;Area;201
Турочакский;р-н;0004;005;000;000;0000;Area;201
Турачакский;р-н;0004;005;000;000;0000;Area;201
Улаганский;р-н;0004;006;000;000;0000;Area;201
Усть-Канский;р-н;0004;007;000;000;0000;Area;201
Усть-Коксинский;р-н;0004;008;000;000;0000;Area;201
Чемальский;р-н;0004;009;000;000;0000;Area;201
Чойский;р-н;0004;010;000;000;0000;Area;201
Шебалинский;р-н;0004;011;000;000;0000;Area;201
Агульский;р-н;0005;002;000;000;0000;Area;201
Акушинский;р-н;0005;003;000;000;0000;Area;201
Ахвахский;р-н;0005;004;000;000;0000;Area;201
Ахтынский;р-н;0005;005;000;000;0000;Area;201
Бабаюртовский;р-н;0005;006;000;000;0000;Area;201
Ботлихский;р-н;0005;007;000;000;0000;Area;201
Буйнакский;р-н;0005;008;000;000;0000;Area;201
Гергебильский;р-н;0005;009;000;000;0000;Area;201
Гумбетовский;р-н;0005;010;000;000;0000;Area;201
Гунибский;р-н;0005;011;000;000;0000;Area;201
Дахадаевский;р-н;0005;012;000;000;0000;Area;201
Дербентский;р-н;0005;013;000;000;0000;Area;201
Докузпаринский;р-н;0005;014;000;000;0000;Area;201
Казбековский;р-н;0005;015;000;000;0000;Area;201
Кайтагский;р-н;0005;016;000;000;0000;Area;201
Карабудахкентский;р-н;0005;017;000;000;0000;Area;201
Каякентский;р-н;0005;018;000;000;0000;Area;201
Кизилюртовский;р-н;0005;019;000;000;0000;Area;201
Кизлярский;р-н;0005;020;000;000;0000;Area;201
Кулинский;р-н;0005;022;000;000;0000;Area;201
Кумторкалинский;р-н;0005;023;000;000;0000;Area;201
Курахский;р-н;0005;024;000;000;0000;Area;201
Лакский;р-н;0005;025;000;000;0000;Area;201
Левашинский;р-н;0005;026;000;000;0000;Area;201
Магарамкентский;р-н;0005;027;000;000;0000;Area;201
Новолакский;р-н;0005;028;000;000;0000;Area;201
Ногайский;р-н;0005;029;000;000;0000;Area;201
Рутульский;р-н;0005;030;000;000;0000;Area;201
Сергокалинский;р-н;0005;031;000;000;0000;Area;201
Сулейман-Стальский;р-н;0005;032;000;000;0000;Area;201
Табасаранский;р-н;0005;033;000;000;0000;Area;201
Тарумовский;р-н;0005;034;000;000;0000;Area;201
Тляратинский;р-н;0005;035;000;000;0000;Area;201
Унцукульский;р-н;0005;036;000;000;0000;Area;201
Хасавюртовский;р-н;0005;037;000;000;0000;Area;201
Хивский;р-н;0005;038;000;000;0000;Area;201
Хунзахский;р-н;0005;039;000;000;0000;Area;201
Цумадинский;р-н;0005;040;000;000;0000;Area;201
Цунтинский;р-н;0005;041;000;000;0000;Area;201
Чародинский;р-н;0005;042;000;000;0000;Area;201
Шамильский;р-н;0005;043;000;000;0000;Area;201
Назрановский;р-н;0006;001;000;000;0000;Area;201
Джейрахский;р-н;0006;002;000;000;0000;Area;201
Малгобекский;р-н;0006;003;000;000;0000;Area;201
Сунженский;р-н;0006;004;000;000;0000;Area;201
Баксанский;р-н;0007;002;000;000;0000;Area;201
Зольский;р-н;0007;003;000;000;0000;Area;201
Майский;р-н;0007;004;000;000;0000;Area;201
Прохладненский;р-н;0007;005;000;000;0000;Area;201
Терский;р-н;0007;006;000;000;0000;Area;201
Урванский;р-н;0007;007;000;000;0000;Area;201
Чегемский;р-н;0007;008;000;000;0000;Area;201
Черекский;р-н;0007;009;000;000;0000;Area;201
Эльбрусский;р-н;0007;010;000;000;0000;Area;201
Лескенский;р-н;0007;011;000;000;0000;Area;201
Городовиковский;р-н;0008;002;000;000;0000;Area;201
Ики-Бурульский;р-н;0008;003;000;000;0000;Area;201
Кетченеровский;р-н;0008;005;000;000;0000;Area;201
Лаганский;р-н;0008;006;000;000;0000;Area;201
Малодербетовский;р-н;0008;007;000;000;0000;Area;201
Октябрьский;р-н;0008;008;000;000;0000;Area;201
Приютненский;р-н;0008;009;000;000;0000;Area;201
Сарпинский;р-н;0008;010;000;000;0000;Area;201
Целинный;р-н;0008;011;000;000;0000;Area;201
Черноземельский;р-н;0008;012;000;000;0000;Area;201
Юстинский;р-н;0008;013;000;000;0000;Area;201
Яшалтинский;р-н;0008;014;000;000;0000;Area;201
Яшкульский;р-н;0008;015;000;000;0000;Area;201
Адыге-Хабльский;р-н;0009;002;000;000;0000;Area;201
Зеленчукский;р-н;0009;003;000;000;0000;Area;201
Карачаевский;р-н;0009;004;000;000;0000;Area;201
Малокарачаевский;р-н;0009;005;000;000;0000;Area;201
Прикубанский;р-н;0009;006;000;000;0000;Area;201
Урупский;р-н;0009;007;000;000;0000;Area;201
Усть-Джегутинский;р-н;0009;008;000;000;0000;Area;201
Хабезский;р-н;0009;009;000;000;0000;Area;201
Абазинский;р-н;0009;010;000;000;0000;Area;201
Ногайский;р-н;0009;011;000;000;0000;Area;201
Прионежский;р-н;0010;001;000;000;0000;Area;201
Беломорский;р-н;0010;002;000;000;0000;Area;201
Калевальский;р-н;0010;003;000;000;0000;Area;201
Кемский;р-н;0010;004;000;000;0000;Area;201
Кондопожский;р-н;0010;005;000;000;0000;Area;201
Лахденпохский;р-н;0010;006;000;000;0000;Area;201
Лоухский;р-н;0010;007;000;000;0000;Area;201
Медвежьегорский;р-н;0010;008;000;000;0000;Area;201
Муезерский;р-н;0010;009;000;000;0000;Area;201
Олонецкий;р-н;0010;010;000;000;0000;Area;201
Питкярантский;р-н;0010;011;000;000;0000;Area;201
Пряжинский;р-н;0010;012;000;000;0000;Area;201
Пудожский;р-н;0010;013;000;000;0000;Area;201
Сегежский;р-н;0010;014;000;000;0000;Area;201
Суоярвский;р-н;0010;015;000;000;0000;Area;201
Воркутинский;р-н;0011;002;000;000;0000;Area;201
Вуктыльский;р-н;0011;003;000;000;0000;Area;201
Ижемский;р-н;0011;004;000;000;0000;Area;201
Интинский;р-н;0011;005;000;000;0000;Area;201
Княжпогостский;р-н;0011;006;000;000;0000;Area;201
Койгородский;р-н;0011;007;000;000;0000;Area;201
Корткеросский;р-н;0011;008;000;000;0000;Area;201
Печорский;р-н;0011;009;000;000;0000;Area;201
Прилузский;р-н;0011;010;000;000;0000;Area;201
Сосногорский;р-н;0011;011;000;000;0000;Area;201
Сыктывдинский;р-н;0011;012;000;000;0000;Area;201
Сысольский;р-н;0011;013;000;000;0000;Area;201
Троицко-Печорский;р-н;0011;014;000;000;0000;Area;201
Удорский;р-н;0011;015;000;000;0000;Area;201
Усинский;р-н;0011;016;000;000;0000;Area;201
Усть-Вымский;р-н;0011;017;000;000;0000;Area;201
Усть-Куломский;р-н;0011;018;000;000;0000;Area;201
Усть-Цилемский;р-н;0011;019;000;000;0000;Area;201
Ухтинский;р-н;0011;020;000;000;0000;Area;201
Волжский;р-н;0012;002;000;000;0000;Area;201
Горномарийский;р-н;0012;003;000;000;0000;Area;201
Звениговский;р-н;0012;004;000;000;0000;Area;201
Килемарский;р-н;0012;005;000;000;0000;Area;201
Куженерский;р-н;0012;006;000;000;0000;Area;201
Мари-Турекский;р-н;0012;007;000;000;0000;Area;201
Медведевский;р-н;0012;008;000;000;0000;Area;201
Моркинский;р-н;0012;009;000;000;0000;Area;201
Новоторъяльский;р-н;0012;010;000;000;0000;Area;201
Оршанский;р-н;0012;011;000;000;0000;Area;201
Параньгинский;р-н;0012;012;000;000;0000;Area;201
Сернурский;р-н;0012;013;000;000;0000;Area;201
Советский;р-н;0012;014;000;000;0000;Area;201
Юринский;р-н;0012;015;000;000;0000;Area;201
Ардатовский;р-н;0013;002;000;000;0000;Area;201
Атюрьевский;р-н;0013;003;000;000;0000;Area;201
Атяшевский;р-н;0013;004;000;000;0000;Area;201
Большеберезниковский;р-н;0013;005;000;000;0000;Area;201
Большеигнатовский;р-н;0013;006;000;000;0000;Area;201
Дубенский;р-н;0013;007;000;000;0000;Area;201
Ельниковский;р-н;0013;008;000;000;0000;Area;201
Зубово-Полянский;р-н;0013;009;000;000;0000;Area;201
Инсарский;р-н;0013;010;000;000;0000;Area;201
Ичалковский;р-н;0013;011;000;000;0000;Area;201
Кадошкинский;р-н;0013;012;000;000;0000;Area;201
Ковылкинский;р-н;0013;013;000;000;0000;Area;201
Кочкуровский;р-н;0013;014;000;000;0000;Area;201
Краснослободский;р-н;0013;015;000;000;0000;Area;201
Лямбирский;р-н;0013;016;000;000;0000;Area;201
Ромодановский;р-н;0013;017;000;000;0000;Area;201
Рузаевский;р-н;0013;018;000;000;0000;Area;201
Старошайговский;р-н;0013;019;000;000;0000;Area;201
Темниковский;р-н;0013;020;000;000;0000;Area;201
Теньгушевский;р-н;0013;021;000;000;0000;Area;201
Торбеевский;р-н;0013;022;000;000;0000;Area;201
Чамзинский;р-н;0013;023;000;000;0000;Area;201
Абыйский;у;0014;002;000;000;0000;Area;202
Алданский;у;0014;003;000;000;0000;Area;202
Аллаиховский;у;0014;004;000;000;0000;Area;202
Амгинский;у;0014;005;000;000;0000;Area;202
Анабарский;у;0014;006;000;000;0000;Area;202
Булунский;у;0014;007;000;000;0000;Area;202
Верхневилюйский;у;0014;008;000;000;0000;Area;202
Верхнеколымский;у;0014;009;000;000;0000;Area;202
Верхоянский;у;0014;010;000;000;0000;Area;202
Вилюйский;у;0014;011;000;000;0000;Area;202
Горный;у;0014;012;000;000;0000;Area;202
Жиганский;у;0014;013;000;000;0000;Area;202
Кобяйский;у;0014;014;000;000;0000;Area;202
Ленский;у;0014;015;000;000;0000;Area;202
Мегино-Кангаласский;у;0014;016;000;000;0000;Area;202
Мирнинский;у;0014;017;000;000;0000;Area;202
Момский;у;0014;018;000;000;0000;Area;202
Момский Национальный;у;0014;018;000;000;0000;Area;202
Намский;у;0014;019;000;000;0000;Area;202
Нижнеколымский;у;0014;020;000;000;0000;Area;202
Нюрбинский;у;0014;021;000;000;0000;Area;202
Оймяконский;у;0014;022;000;000;0000;Area;202
Олекминский;у;0014;023;000;000;0000;Area;202
Оленекский эвенкийский национальный;у;0014;024;000;000;0000;Area;202
Оленекский;у;0014;024;000;000;0000;Area;202
Среднеколымский;у;0014;025;000;000;0000;Area;202
Сунтарский;у;0014;026;000;000;0000;Area;202
Таттинский;у;0014;027;000;000;0000;Area;202
Томпонский;у;0014;028;000;000;0000;Area;202
Усть-Алданский;у;0014;029;000;000;0000;Area;202
Усть-Майский;у;0014;030;000;000;0000;Area;202
Усть-Янский;у;0014;031;000;000;0000;Area;202
Хангаласский;у;0014;032;000;000;0000;Area;202
Чурапчинский;у;0014;033;000;000;0000;Area;202
Эвено-Бытантайский Национальный;у;0014;034;000;000;0000;Area;202
Алагирский;р-н;0015;002;000;000;0000;Area;201
Ардонский;р-н;0015;003;000;000;0000;Area;201
Дигорский;р-н;0015;004;000;000;0000;Area;201
Ирафский;р-н;0015;005;000;000;0000;Area;201
Кировский;р-н;0015;006;000;000;0000;Area;201
Моздокский;р-н;0015;007;000;000;0000;Area;201
Правобережный;р-н;0015;008;000;000;0000;Area;201
Пригородный;р-н;0015;009;000;000;0000;Area;201
Агрызский;р-н;0016;002;000;000;0000;Area;201
Азнакаевский;р-н;0016;003;000;000;0000;Area;201
Аксубаевский;р-н;0016;004;000;000;0000;Area;201
Актанышский;р-н;0016;005;000;000;0000;Area;201
Алексеевский;р-н;0016;006;000;000;0000;Area;201
Алькеевский;р-н;0016;007;000;000;0000;Area;201
Альметьевский;р-н;0016;008;000;000;0000;Area;201
Апастовский;р-н;0016;009;000;000;0000;Area;201
Арский;р-н;0016;010;000;000;0000;Area;201
Атнинский;р-н;0016;011;000;000;0000;Area;201
Бавлинский;р-н;0016;012;000;000;0000;Area;201
Балтасинский;р-н;0016;013;000;000;0000;Area;201
Бугульминский;р-н;0016;014;000;000;0000;Area;201
Буинский;р-н;0016;015;000;000;0000;Area;201
Верхнеуслонский;р-н;0016;016;000;000;0000;Area;201
Высокогорский;р-н;0016;017;000;000;0000;Area;201
Дрожжановский;р-н;0016;018;000;000;0000;Area;201
Елабужский;р-н;0016;019;000;000;0000;Area;201
Заинский;р-н;0016;020;000;000;0000;Area;201
Зеленодольский;р-н;0016;021;000;000;0000;Area;201
Кайбицкий;р-н;0016;022;000;000;0000;Area;201
Камско-Устьинский;р-н;0016;023;000;000;0000;Area;201
Кукморский;р-н;0016;024;000;000;0000;Area;201
Лаишевский;р-н;0016;025;000;000;0000;Area;201
Лениногорский;р-н;0016;026;000;000;0000;Area;201
Мамадышский;р-н;0016;027;000;000;0000;Area;201
Менделеевский;р-н;0016;028;000;000;0000;Area;201
Мензелинский;р-н;0016;029;000;000;0000;Area;201
Муслюмовский;р-н;0016;030;000;000;0000;Area;201
Нижнекамский;р-н;0016;031;000;000;0000;Area;201
Новошешминский;р-н;0016;032;000;000;0000;Area;201
Нурлатский;р-н;0016;033;000;000;0000;Area;201
Пестречинский;р-н;0016;034;000;000;0000;Area;201
Рыбно-Слободский;р-н;0016;035;000;000;0000;Area;201
Сабинский;р-н;0016;036;000;000;0000;Area;201
Сармановский;р-н;0016;037;000;000;0000;Area;201
Спасский;р-н;0016;038;000;000;0000;Area;201
Тетюшский;р-н;0016;039;000;000;0000;Area;201
Тукаевский;р-н;0016;040;000;000;0000;Area;201
Тюлячинский;р-н;0016;041;000;000;0000;Area;201
Черемшанский;р-н;0016;042;000;000;0000;Area;201
Чистопольский;р-н;0016;043;000;000;0000;Area;201
Ютазинский;р-н;0016;044;000;000;0000;Area;201
Тукая;р-н;0016;045;000;000;0000;Area;201
Бай-Тайгинский;р-н;0017;002;000;000;0000;Area;201
Барун-Хемчикский;р-н;0017;003;000;000;0000;Area;201
Дзун-Хемчикский;р-н;0017;004;000;000;0000;Area;201
Каа-Хемский;р-н;0017;005;000;000;0000;Area;201
Кызылский;р-н;0017;006;000;000;0000;Area;201
Монгун-Тайгинский;р-н;0017;007;000;000;0000;Area;201
Овюрский;р-н;0017;008;000;000;0000;Area;201
Пий-Хемский;р-н;0017;009;000;000;0000;Area;201
Сут-Хольский;р-н;0017;010;000;000;0000;Area;201
Тандинский;р-н;0017;011;000;000;0000;Area;201
Тес-Хемский;р-н;0017;012;000;000;0000;Area;201
Тоджинский;р-н;0017;013;000;000;0000;Area;201
Улуг-Хемский;р-н;0017;014;000;000;0000;Area;201
Чаа-Хольский;р-н;0017;015;000;000;0000;Area;201
Чеди-Хольский;р-н;0017;016;000;000;0000;Area;201
Эрзинский;р-н;0017;017;000;000;0000;Area;201
Тере-Хольский;р-н;0017;018;000;000;0000;Area;201
Алнашский;р-н;0018;002;000;000;0000;Area;201
Балезинский;р-н;0018;003;000;000;0000;Area;201
Вавожский;р-н;0018;004;000;000;0000;Area;201
Воткинский;р-н;0018;005;000;000;0000;Area;201
Глазовский;р-н;0018;006;000;000;0000;Area;201
Граховский;р-н;0018;007;000;000;0000;Area;201
Дебесский;р-н;0018;008;000;000;0000;Area;201
Завьяловский;р-н;0018;009;000;000;0000;Area;201
Игринский;р-н;0018;010;000;000;0000;Area;201
Камбарский;р-н;0018;011;000;000;0000;Area;201
Каракулинский;р-н;0018;012;000;000;0000;Area;201
Кезский;р-н;0018;013;000;000;0000;Area;201
Кизнерский;р-н;0018;014;000;000;0000;Area;201
Киясовский;р-н;0018;015;000;000;0000;Area;201
Красногорский;р-н;0018;016;000;000;0000;Area;201
Малопургинский;р-н;0018;017;000;000;0000;Area;201
Можгинский;р-н;0018;018;000;000;0000;Area;201
Сарапульский;р-н;0018;019;000;000;0000;Area;201
Селтинский;р-н;0018;020;000;000;0000;Area;201
Сюмсинский;р-н;0018;021;000;000;0000;Area;201
Увинский;р-н;0018;022;000;000;0000;Area;201
Шарканский;р-н;0018;023;000;000;0000;Area;201
Юкаменский;р-н;0018;024;000;000;0000;Area;201
Якшур-Бодьинский;р-н;0018;025;000;000;0000;Area;201
Ярский;р-н;0018;026;000;000;0000;Area;201
Алтайский;р-н;0019;002;000;000;0000;Area;201
Аскизский;р-н;0019;003;000;000;0000;Area;201
Бейский;р-н;0019;004;000;000;0000;Area;201
Боградский;р-н;0019;005;000;000;0000;Area;201
Орджоникидзевский;р-н;0019;006;000;000;0000;Area;201
Таштыпский;р-н;0019;007;000;000;0000;Area;201
Усть-Абаканский;р-н;0019;008;000;000;0000;Area;201
Ширинский;р-н;0019;009;000;000;0000;Area;201
Ачхой-Мартановский;р-н;0020;002;000;000;0000;Area;201
Веденский;р-н;0020;003;000;000;0000;Area;201
Грозненский;р-н;0020;004;000;000;0000;Area;201
Гудермесский;р-н;0020;005;000;000;0000;Area;201
Курчалоевский;р-н;0020;006;000;000;0000;Area;201
Надтеречный;р-н;0020;007;000;000;0000;Area;201
Наурский;р-н;0020;008;000;000;0000;Area;201
Ножай-Юртовский;р-н;0020;009;000;000;0000;Area;201
Урус-Мартановский;р-н;0020;010;000;000;0000;Area;201
Шелковской;р-н;0020;011;000;000;0000;Area;201
Шалинский;р-н;0020;012;000;000;0000;Area;201
Шатойский;р-н;0020;018;000;000;0000;Area;201
Шаройский;р-н;0020;019;000;000;0000;Area;201
Итум-Калинский;р-н;0020;028;000;000;0000;Area;201
Сунженский;р-н;0020;029;000;000;0000;Area;201
Алатырский;р-н;0021;002;000;000;0000;Area;201
Аликовский;р-н;0021;003;000;000;0000;Area;201
Батыревский;р-н;0021;004;000;000;0000;Area;201
Вурнарский;р-н;0021;005;000;000;0000;Area;201
Ибресинский;р-н;0021;006;000;000;0000;Area;201
Канашский;р-н;0021;007;000;000;0000;Area;201
Козловский;р-н;0021;008;000;000;0000;Area;201
Комсомольский;р-н;0021;009;000;000;0000;Area;201
Красноармейский;р-н;0021;010;000;000;0000;Area;201
Красночетайский;р-н;0021;011;000;000;0000;Area;201
Мариинско-Посадский;р-н;0021;012;000;000;0000;Area;201
Моргаушский;р-н;0021;013;000;000;0000;Area;201
Порецкий;р-н;0021;014;000;000;0000;Area;201
Урмарский;р-н;0021;015;000;000;0000;Area;201
Цивильский;р-н;0021;016;000;000;0000;Area;201
Чебоксарский;р-н;0021;017;000;000;0000;Area;201
Шемуршинский;р-н;0021;018;000;000;0000;Area;201
Шумерлинский;р-н;0021;019;000;000;0000;Area;201
Ядринский;р-н;0021;020;000;000;0000;Area;201
Яльчикский;р-н;0021;021;000;000;0000;Area;201
Янтиковский;р-н;0021;022;000;000;0000;Area;201
Алейский;р-н;0022;002;000;000;0000;Area;201
Алтайский;р-н;0022;003;000;000;0000;Area;201
Баевский;р-н;0022;004;000;000;0000;Area;201
Бийский;р-н;0022;005;000;000;0000;Area;201
Благовещенский;р-н;0022;006;000;000;0000;Area;201
Бурлинский;р-н;0022;007;000;000;0000;Area;201
Быстроистокский;р-н;0022;008;000;000;0000;Area;201
Волчихинский;р-н;0022;009;000;000;0000;Area;201
Егорьевский;р-н;0022;010;000;000;0000;Area;201
Ельцовский;р-н;0022;011;000;000;0000;Area;201
Завьяловский;р-н;0022;012;000;000;0000;Area;201
Залесовский;р-н;0022;013;000;000;0000;Area;201
Заринский;р-н;0022;014;000;000;0000;Area;201
Змеиногорский;р-н;0022;015;000;000;0000;Area;201
Зональный;р-н;0022;016;000;000;0000;Area;201
Калманский;р-н;0022;017;000;000;0000;Area;201
Каменский;р-н;0022;018;000;000;0000;Area;201
Ключевский;р-н;0022;019;000;000;0000;Area;201
Косихинский;р-н;0022;020;000;000;0000;Area;201
Красногорский;р-н;0022;021;000;000;0000;Area;201
Краснощёковский;р-н;0022;022;000;000;0000;Area;201
Краснощековский;р-н;0022;022;000;000;0000;Area;201
Крутихинский;р-н;0022;023;000;000;0000;Area;201
Кулундинский;р-н;0022;024;000;000;0000;Area;201
Курьинский;р-н;0022;025;000;000;0000;Area;201
Кытмановский;р-н;0022;026;000;000;0000;Area;201
Локтевский;р-н;0022;027;000;000;0000;Area;201
Мамонтовский;р-н;0022;028;000;000;0000;Area;201
Михайловский;р-н;0022;029;000;000;0000;Area;201
Немецкий Национальный;р-н;0022;030;000;000;0000;Area;201
Новичихинский;р-н;0022;031;000;000;0000;Area;201
Павловский;р-н;0022;032;000;000;0000;Area;201
Панкрушихинский;р-н;0022;033;000;000;0000;Area;201
Первомайский;р-н;0022;034;000;000;0000;Area;201
Петропавловский;р-н;0022;035;000;000;0000;Area;201
Поспелихинский;р-н;0022;036;000;000;0000;Area;201
Ребрихинский;р-н;0022;037;000;000;0000;Area;201
Родинский;р-н;0022;038;000;000;0000;Area;201
Романовский;р-н;0022;039;000;000;0000;Area;201
Рубцовский;р-н;0022;040;000;000;0000;Area;201
Славгородский;р-н;0022;041;000;000;0000;Area;201
Смоленский;р-н;0022;042;000;000;0000;Area;201
Советский;р-н;0022;043;000;000;0000;Area;201
Солонешенский;р-н;0022;044;000;000;0000;Area;201
Солтонский;р-н;0022;045;000;000;0000;Area;201
Суетский;р-н;0022;046;000;000;0000;Area;201
Табунский;р-н;0022;047;000;000;0000;Area;201
Тальменский;р-н;0022;048;000;000;0000;Area;201
Тогульский;р-н;0022;049;000;000;0000;Area;201
Топчихинский;р-н;0022;050;000;000;0000;Area;201
Третьяковский;р-н;0022;051;000;000;0000;Area;201
Троицкий;р-н;0022;052;000;000;0000;Area;201
Тюменцевский;р-н;0022;053;000;000;0000;Area;201
Угловский;р-н;0022;054;000;000;0000;Area;201
Усть-Калманский;р-н;0022;055;000;000;0000;Area;201
Усть-Пристанский;р-н;0022;056;000;000;0000;Area;201
Хабарский;р-н;0022;057;000;000;0000;Area;201
Целинный;р-н;0022;058;000;000;0000;Area;201
Чарышский;р-н;0022;059;000;000;0000;Area;201
Шелаболихинский;р-н;0022;060;000;000;0000;Area;201
Шипуновский;р-н;0022;061;000;000;0000;Area;201
Абинский;р-н;0023;002;000;000;0000;Area;201
Анапский;р-н;0023;003;000;000;0000;Area;201
Апшеронский;р-н;0023;004;000;000;0000;Area;201
Белоглинский;р-н;0023;005;000;000;0000;Area;201
Белореченский;р-н;0023;006;000;000;0000;Area;201
Брюховецкий;р-н;0023;007;000;000;0000;Area;201
Выселковский;р-н;0023;008;000;000;0000;Area;201
Гулькевичский;р-н;0023;009;000;000;0000;Area;201
Динской;р-н;0023;010;000;000;0000;Area;201
Ейский;р-н;0023;011;000;000;0000;Area;201
Кавказский;р-н;0023;012;000;000;0000;Area;201
Калининский;р-н;0023;013;000;000;0000;Area;201
Каневской;р-н;0023;014;000;000;0000;Area;201
Каневский;р-н;0023;014;000;000;0000;Area;201
Кореновский;р-н;0023;015;000;000;0000;Area;201
Красноармейский;р-н;0023;016;000;000;0000;Area;201
Крыловский;р-н;0023;017;000;000;0000;Area;201
Крымский;р-н;0023;018;000;000;0000;Area;201
Курганинский;р-н;0023;019;000;000;0000;Area;201
Кущевский;р-н;0023;020;000;000;0000;Area;201
Лабинский;р-н;0023;021;000;000;0000;Area;201
Ленинградский;р-н;0023;022;000;000;0000;Area;201
Мостовский;р-н;0023;023;000;000;0000;Area;201
Новокубанский;р-н;0023;024;000;000;0000;Area;201
Новопокровский;р-н;0023;025;000;000;0000;Area;201
Отрадненский;р-н;0023;026;000;000;0000;Area;201
Павловский;р-н;0023;027;000;000;0000;Area;201
Приморско-Ахтарский;р-н;0023;028;000;000;0000;Area;201
Северский;р-н;0023;029;000;000;0000;Area;201
Славянский;р-н;0023;030;000;000;0000;Area;201
Староминский;р-н;0023;031;000;000;0000;Area;201
Тбилисский;р-н;0023;032;000;000;0000;Area;201
Темрюкский;р-н;0023;033;000;000;0000;Area;201
Тимашевский;р-н;0023;034;000;000;0000;Area;201
Тихорецкий;р-н;0023;035;000;000;0000;Area;201
Туапсинский;р-н;0023;036;000;000;0000;Area;201
Успенский;р-н;0023;037;000;000;0000;Area;201
Усть-Лабинский;р-н;0023;038;000;000;0000;Area;201
Щербиновский;р-н;0023;039;000;000;0000;Area;201
Абанский;р-н;0024;002;000;000;0000;Area;201
Ачинский;р-н;0024;003;000;000;0000;Area;201
Балахтинский;р-н;0024;004;000;000;0000;Area;201
Березовский;р-н;0024;005;000;000;0000;Area;201
Бирилюсский;р-н;0024;006;000;000;0000;Area;201
Боготольский;р-н;0024;007;000;000;0000;Area;201
Богучанский;р-н;0024;008;000;000;0000;Area;201
Большемуртинский;р-н;0024;009;000;000;0000;Area;201
Большеулуйский;р-н;0024;010;000;000;0000;Area;201
Дзержинский;р-н;0024;011;000;000;0000;Area;201
Емельяновский;р-н;0024;012;000;000;0000;Area;201
Енисейский;р-н;0024;013;000;000;0000;Area;201
Ермаковский;р-н;0024;014;000;000;0000;Area;201
Идринский;р-н;0024;015;000;000;0000;Area;201
Иланский;р-н;0024;016;000;000;0000;Area;201
Ирбейский;р-н;0024;017;000;000;0000;Area;201
Казачинский;р-н;0024;018;000;000;0000;Area;201
Канский;р-н;0024;019;000;000;0000;Area;201
Каратузский;р-н;0024;020;000;000;0000;Area;201
Кежемский;р-н;0024;021;000;000;0000;Area;201
Козульский;р-н;0024;022;000;000;0000;Area;201
Краснотуранский;р-н;0024;023;000;000;0000;Area;201
Курагинский;р-н;0024;024;000;000;0000;Area;201
Манский;р-н;0024;025;000;000;0000;Area;201
Минусинский;р-н;0024;026;000;000;0000;Area;201
Мотыгинский;р-н;0024;027;000;000;0000;Area;201
Назаровский;р-н;0024;028;000;000;0000;Area;201
Нижнеингашский;р-н;0024;029;000;000;0000;Area;201
Новоселовский;р-н;0024;030;000;000;0000;Area;201
Партизанский;р-н;0024;031;000;000;0000;Area;201
Пировский;р-н;0024;032;000;000;0000;Area;201
Рыбинский;р-н;0024;033;000;000;0000;Area;201
Саянский;р-н;0024;034;000;000;0000;Area;201
Северо-Енисейский;р-н;0024;035;000;000;0000;Area;201
Сухобузимский;р-н;0024;036;000;000;0000;Area;201
Тасеевский;р-н;0024;037;000;000;0000;Area;201
Туруханский;р-н;0024;038;000;000;0000;Area;201
Тюхтетский;р-н;0024;039;000;000;0000;Area;201
Ужурский;р-н;0024;040;000;000;0000;Area;201
Уярский;р-н;0024;041;000;000;0000;Area;201
Шарыповский;р-н;0024;042;000;000;0000;Area;201
Шушенский;р-н;0024;043;000;000;0000;Area;201
Эвенкийский;р-н;0024;044;000;000;0000;Area;201
Илимпийский;р-н;0024;045;000;000;0000;Area;201
Байкитский;р-н;0024;046;000;000;0000;Area;201
Тунгусско-Чунский;р-н;0024;047;000;000;0000;Area;201
Таймырский Долгано-Ненецкий;р-н;0024;048;000;000;0000;Area;201
Таймырский (Долгано-Ненецкий);АО;0024;048;000;000;0000;Area;205
Анучинский;р-н;0025;002;000;000;0000;Area;201
Дальнегорский;р-н;0025;003;000;000;0000;Area;201
Дальнереченский;р-н;0025;004;000;000;0000;Area;201
Кавалеровский;р-н;0025;005;000;000;0000;Area;201
Кировский;р-н;0025;006;000;000;0000;Area;201
Красноармейский;р-н;0025;007;000;000;0000;Area;201
Лазовский;р-н;0025;008;000;000;0000;Area;201
Лесозаводский;р-н;0025;009;000;000;0000;Area;201
Михайловский;р-н;0025;010;000;000;0000;Area;201
Надеждинский;р-н;0025;011;000;000;0000;Area;201
Октябрьский;р-н;0025;012;000;000;0000;Area;201
Ольгинский;р-н;0025;013;000;000;0000;Area;201
Партизанский;р-н;0025;014;000;000;0000;Area;201
Пограничный;р-н;0025;015;000;000;0000;Area;201
Пожарский;р-н;0025;016;000;000;0000;Area;201
Спасский;р-н;0025;017;000;000;0000;Area;201
Тернейский;р-н;0025;018;000;000;0000;Area;201
Уссурийский;р-н;0025;019;000;000;0000;Area;201
Ханкайский;р-н;0025;020;000;000;0000;Area;201
Хасанский;р-н;0025;021;000;000;0000;Area;201
Хорольский;р-н;0025;022;000;000;0000;Area;201
Черниговский;р-н;0025;023;000;000;0000;Area;201
Чугуевский;р-н;0025;024;000;000;0000;Area;201
Шкотовский;р-н;0025;025;000;000;0000;Area;201
Яковлевский;р-н;0025;026;000;000;0000;Area;201
Александровский;р-н;0026;002;000;000;0000;Area;201
Андроповский;р-н;0026;003;000;000;0000;Area;201
Апанасенковский;р-н;0026;004;000;000;0000;Area;201
Арзгирский;р-н;0026;005;000;000;0000;Area;201
Благодарненский;р-н;0026;006;000;000;0000;Area;201
Буденновский;р-н;0026;007;000;000;0000;Area;201
Георгиевский;р-н;0026;008;000;000;0000;Area;201
Грачевский;р-н;0026;009;000;000;0000;Area;201
Изобильненский;р-н;0026;010;000;000;0000;Area;201
Ипатовский;р-н;0026;011;000;000;0000;Area;201
Кировский;р-н;0026;012;000;000;0000;Area;201
Кочубеевский;р-н;0026;013;000;000;0000;Area;201
Красногвардейский;р-н;0026;014;000;000;0000;Area;201
Курский;р-н;0026;015;000;000;0000;Area;201
Левокумский;р-н;0026;016;000;000;0000;Area;201
Минераловодский;р-н;0026;017;000;000;0000;Area;201
Нефтекумский;р-н;0026;018;000;000;0000;Area;201
Новоалександровский;р-н;0026;019;000;000;0000;Area;201
Новоселицкий;р-н;0026;020;000;000;0000;Area;201
Петровский;р-н;0026;021;000;000;0000;Area;201
Предгорный;р-н;0026;022;000;000;0000;Area;201
Советский;р-н;0026;023;000;000;0000;Area;201
Степновский;р-н;0026;024;000;000;0000;Area;201
Труновский;р-н;0026;025;000;000;0000;Area;201
Туркменский;р-н;0026;026;000;000;0000;Area;201
Шпаковский;р-н;0026;027;000;000;0000;Area;201
Амурский;р-н;0027;002;000;000;0000;Area;201
Аяно-Майский;р-н;0027;003;000;000;0000;Area;201
Бикинский;р-н;0027;004;000;000;0000;Area;201
Ванинский;р-н;0027;005;000;000;0000;Area;201
Верхнебуреинский;р-н;0027;006;000;000;0000;Area;201
Вяземский;р-н;0027;007;000;000;0000;Area;201
Имени Лазо;р-н;0027;008;000;000;0000;Area;201
Имени Полины Осипенко;р-н;0027;009;000;000;0000;Area;201
Комсомольский;р-н;0027;010;000;000;0000;Area;201
Нанайский;р-н;0027;011;000;000;0000;Area;201
Николаевский;р-н;0027;012;000;000;0000;Area;201
Охотский;р-н;0027;013;000;000;0000;Area;201
Советско-Гаванский;р-н;0027;014;000;000;0000;Area;201
Солнечный;р-н;0027;015;000;000;0000;Area;201
Тугуро-Чумиканский;р-н;0027;016;000;000;0000;Area;201
Ульчский;р-н;0027;017;000;000;0000;Area;201
Хабаровский;р-н;0027;018;000;000;0000;Area;201
Благовещенский;р-н;0028;001;000;000;0000;Area;201
Архаринский;р-н;0028;002;000;000;0000;Area;201
Белогорский;р-н;0028;003;000;000;0000;Area;201
Бурейский;р-н;0028;004;000;000;0000;Area;201
Завитинский;р-н;0028;005;000;000;0000;Area;201
Зейский;р-н;0028;006;000;000;0000;Area;201
Ивановский;р-н;0028;007;000;000;0000;Area;201
Константиновский;р-н;0028;008;000;000;0000;Area;201
Магдагачинский;р-н;0028;009;000;000;0000;Area;201
Мазановский;р-н;0028;010;000;000;0000;Area;201
Михайловский;р-н;0028;011;000;000;0000;Area;201
Октябрьский;р-н;0028;012;000;000;0000;Area;201
Ромненский;р-н;0028;013;000;000;0000;Area;201
Свободненский;р-н;0028;014;000;000;0000;Area;201
Селемджинский;р-н;0028;015;000;000;0000;Area;201
Серышевский;р-н;0028;016;000;000;0000;Area;201
Сковородинский;р-н;0028;017;000;000;0000;Area;201
Тамбовский;р-н;0028;018;000;000;0000;Area;201
Тындинский;р-н;0028;019;000;000;0000;Area;201
Шимановский;р-н;0028;020;000;000;0000;Area;201
Приморский;р-н;0029;001;000;000;0000;Area;201
Вельский;р-н;0029;002;000;000;0000;Area;201
Верхнетоемский;р-н;0029;003;000;000;0000;Area;201
Вилегодский;р-н;0029;004;000;000;0000;Area;201
Виноградовский;р-н;0029;005;000;000;0000;Area;201
Каргопольский;р-н;0029;006;000;000;0000;Area;201
Коношский;р-н;0029;007;000;000;0000;Area;201
Котласский;р-н;0029;008;000;000;0000;Area;201
Красноборский;р-н;0029;009;000;000;0000;Area;201
Ленский;р-н;0029;010;000;000;0000;Area;201
Лешуконский;р-н;0029;011;000;000;0000;Area;201
Мезенский;р-н;0029;012;000;000;0000;Area;201
Няндомский;р-н;0029;013;000;000;0000;Area;201
Онежский;р-н;0029;014;000;000;0000;Area;201
Пинежский;р-н;0029;015;000;000;0000;Area;201
Плесецкий;р-н;0029;016;000;000;0000;Area;201
Устьянский;р-н;0029;017;000;000;0000;Area;201
Холмогорский;р-н;0029;018;000;000;0000;Area;201
Шенкурский;р-н;0029;019;000;000;0000;Area;201
Соловецкий;р-н;0029;020;000;000;0000;Area;201
Ахтубинский;р-н;0030;002;000;000;0000;Area;201
Володарский;р-н;0030;003;000;000;0000;Area;201
Енотаевский;р-н;0030;004;000;000;0000;Area;201
Икрянинский;р-н;0030;005;000;000;0000;Area;201
Камызякский;р-н;0030;006;000;000;0000;Area;201
Красноярский;р-н;0030;007;000;000;0000;Area;201
Лиманский;р-н;0030;008;000;000;0000;Area;201
Наримановский;р-н;0030;009;000;000;0000;Area;201
Приволжский;р-н;0030;010;000;000;0000;Area;201
Харабалинский;р-н;0030;011;000;000;0000;Area;201
Черноярский;р-н;0030;012;000;000;0000;Area;201
Алексеевский;р-н;0031;002;000;000;0000;Area;201
Борисовский;р-н;0031;003;000;000;0000;Area;201
Валуйский;р-н;0031;004;000;000;0000;Area;201
Вейделевский;р-н;0031;005;000;000;0000;Area;201
Волоконовский;р-н;0031;006;000;000;0000;Area;201
Грайворонский;р-н;0031;007;000;000;0000;Area;201
Губкинский;р-н;0031;008;000;000;0000;Area;201
Ивнянский;р-н;0031;009;000;000;0000;Area;201
Корочанский;р-н;0031;010;000;000;0000;Area;201
Красненский;р-н;0031;011;000;000;0000;Area;201
Красногвардейский;р-н;0031;012;000;000;0000;Area;201
Краснояружский;р-н;0031;013;000;000;0000;Area;201
Новооскольский;р-н;0031;014;000;000;0000;Area;201
Прохоровский;р-н;0031;015;000;000;0000;Area;201
Ракитянский;р-н;0031;016;000;000;0000;Area;201
Ровеньский;р-н;0031;017;000;000;0000;Area;201
Старооскольский;р-н;0031;018;000;000;0000;Area;201
Чернянский;р-н;0031;019;000;000;0000;Area;201
Шебекинский;р-н;0031;020;000;000;0000;Area;201
Яковлевский;р-н;0031;021;000;000;0000;Area;201
Белгородский;р-н;0031;022;000;000;0000;Area;201
Брянский;р-н;0032;001;000;000;0000;Area;201
Брасовский;р-н;0032;002;000;000;0000;Area;201
Выгоничский;р-н;0032;003;000;000;0000;Area;201
Гордеевский;р-н;0032;004;000;000;0000;Area;201
Дубровский;р-н;0032;005;000;000;0000;Area;201
Дятьковский;р-н;0032;006;000;000;0000;Area;201
Жирятинский;р-н;0032;007;000;000;0000;Area;201
Жуковский;р-н;0032;008;000;000;0000;Area;201
Злынковский;р-н;0032;009;000;000;0000;Area;201
Карачевский;р-н;0032;010;000;000;0000;Area;201
Клетнянский;р-н;0032;011;000;000;0000;Area;201
Климовский;р-н;0032;012;000;000;0000;Area;201
Клинцовский;р-н;0032;013;000;000;0000;Area;201
Комаричский;р-н;0032;014;000;000;0000;Area;201
Красногорский;р-н;0032;015;000;000;0000;Area;201
Мглинский;р-н;0032;016;000;000;0000;Area;201
Навлинский;р-н;0032;017;000;000;0000;Area;201
Новозыбковский;р-н;0032;018;000;000;0000;Area;201
Погарский;р-н;0032;019;000;000;0000;Area;201
Почепский;р-н;0032;020;000;000;0000;Area;201
Рогнединский;р-н;0032;021;000;000;0000;Area;201
Севский;р-н;0032;022;000;000;0000;Area;201
Стародубский;р-н;0032;023;000;000;0000;Area;201
Суземский;р-н;0032;024;000;000;0000;Area;201
Суражский;р-н;0032;025;000;000;0000;Area;201
Трубчевский;р-н;0032;026;000;000;0000;Area;201
Унечский;р-н;0032;027;000;000;0000;Area;201
Александровский;р-н;0033;002;000;000;0000;Area;201
Вязниковский;р-н;0033;003;000;000;0000;Area;201
Гороховецкий;р-н;0033;004;000;000;0000;Area;201
Гусь-Хрустальный;р-н;0033;005;000;000;0000;Area;201
Камешковский;р-н;0033;006;000;000;0000;Area;201
Киржачский;р-н;0033;007;000;000;0000;Area;201
Ковровский;р-н;0033;008;000;000;0000;Area;201
Кольчугинский;р-н;0033;009;000;000;0000;Area;201
Меленковский;р-н;0033;010;000;000;0000;Area;201
Муромский;р-н;0033;011;000;000;0000;Area;201
Петушинский;р-н;0033;012;000;000;0000;Area;201
Селивановский;р-н;0033;013;000;000;0000;Area;201
Собинский;р-н;0033;014;000;000;0000;Area;201
Судогодский;р-н;0033;015;000;000;0000;Area;201
Суздальский;р-н;0033;016;000;000;0000;Area;201
Юрьев-Польский;р-н;0033;017;000;000;0000;Area;201
Алексеевский;р-н;0034;002;000;000;0000;Area;201
Быковский;р-н;0034;003;000;000;0000;Area;201
Городищенский;р-н;0034;004;000;000;0000;Area;201
Даниловский;р-н;0034;005;000;000;0000;Area;201
Дубовский;р-н;0034;006;000;000;0000;Area;201
Еланский;р-н;0034;007;000;000;0000;Area;201
Жирновский;р-н;0034;008;000;000;0000;Area;201
Иловлинский;р-н;0034;009;000;000;0000;Area;201
Калачевский;р-н;0034;010;000;000;0000;Area;201
Камышинский;р-н;0034;011;000;000;0000;Area;201
Киквидзенский;р-н;0034;012;000;000;0000;Area;201
Клетский;р-н;0034;013;000;000;0000;Area;201
Котельниковский;р-н;0034;014;000;000;0000;Area;201
Котовский;р-н;0034;015;000;000;0000;Area;201
Кумылженский;р-н;0034;016;000;000;0000;Area;201
Ленинский;р-н;0034;017;000;000;0000;Area;201
Михайловский;р-н;0034;018;000;000;0000;Area;201
Нехаевский;р-н;0034;019;000;000;0000;Area;201
Николаевский;р-н;0034;020;000;000;0000;Area;201
Новоаннинский;р-н;0034;021;000;000;0000;Area;201
Октябрьский;р-н;0034;022;000;000;0000;Area;201
Ольховский;р-н;0034;023;000;000;0000;Area;201
Палласовский;р-н;0034;024;000;000;0000;Area;201
Руднянский;р-н;0034;025;000;000;0000;Area;201
Светлоярский;р-н;0034;026;000;000;0000;Area;201
Серафимовичский;р-н;0034;027;000;000;0000;Area;201
Среднеахтубинский;р-н;0034;028;000;000;0000;Area;201
Старополтавский;р-н;0034;029;000;000;0000;Area;201
Суровикинский;р-н;0034;030;000;000;0000;Area;201
Урюпинский;р-н;0034;031;000;000;0000;Area;201
Фроловский;р-н;0034;032;000;000;0000;Area;201
Чернышковский;р-н;0034;033;000;000;0000;Area;201
Новониколаевский;р-н;0034;034;000;000;0000;Area;201
Вологодский;р-н;0035;001;000;000;0000;Area;201
Бабаевский;р-н;0035;002;000;000;0000;Area;201
Бабушкинский;р-н;0035;003;000;000;0000;Area;201
Белозерский;р-н;0035;004;000;000;0000;Area;201
Вашкинский;р-н;0035;005;000;000;0000;Area;201
Великоустюгский;р-н;0035;006;000;000;0000;Area;201
Верховажский;р-н;0035;007;000;000;0000;Area;201
Вожегодский;р-н;0035;008;000;000;0000;Area;201
Вытегорский;р-н;0035;009;000;000;0000;Area;201
Грязовецкий;р-н;0035;010;000;000;0000;Area;201
Кадуйский;р-н;0035;011;000;000;0000;Area;201
Кирилловский;р-н;0035;012;000;000;0000;Area;201
Кичменгско-Городецкий;р-н;0035;013;000;000;0000;Area;201
Междуреченский;р-н;0035;014;000;000;0000;Area;201
Никольский;р-н;0035;015;000;000;0000;Area;201
Нюксенский;р-н;0035;016;000;000;0000;Area;201
Сокольский;р-н;0035;017;000;000;0000;Area;201
Сямженский;р-н;0035;018;000;000;0000;Area;201
Тарногский;р-н;0035;019;000;000;0000;Area;201
Тотемский;р-н;0035;020;000;000;0000;Area;201
Усть-Кубинский;р-н;0035;021;000;000;0000;Area;201
Устюженский;р-н;0035;022;000;000;0000;Area;201
Харовский;р-н;0035;023;000;000;0000;Area;201
Чагодощенский;р-н;0035;024;000;000;0000;Area;201
Череповецкий;р-н;0035;025;000;000;0000;Area;201
Шекснинский;р-н;0035;026;000;000;0000;Area;201
Аннинский;р-н;0036;002;000;000;0000;Area;201
Бобровский;р-н;0036;003;000;000;0000;Area;201
Богучарский;р-н;0036;004;000;000;0000;Area;201
Борисоглебский;р-н;0036;005;000;000;0000;Area;201
Бутурлиновский;р-н;0036;006;000;000;0000;Area;201
Верхнемамонский;р-н;0036;007;000;000;0000;Area;201
Верхнехавский;р-н;0036;008;000;000;0000;Area;201
Воробьевский;р-н;0036;009;000;000;0000;Area;201
Грибановский;р-н;0036;010;000;000;0000;Area;201
Калачеевский;р-н;0036;011;000;000;0000;Area;201
Каменский;р-н;0036;012;000;000;0000;Area;201
Кантемировский;р-н;0036;013;000;000;0000;Area;201
Каширский;р-н;0036;014;000;000;0000;Area;201
Лискинский;р-н;0036;015;000;000;0000;Area;201
Нижнедевицкий;р-н;0036;016;000;000;0000;Area;201
Новоусманский;р-н;0036;017;000;000;0000;Area;201
Новохоперский;р-н;0036;018;000;000;0000;Area;201
Ольховатский;р-н;0036;019;000;000;0000;Area;201
Острогожский;р-н;0036;020;000;000;0000;Area;201
Павловский;р-н;0036;021;000;000;0000;Area;201
Панинский;р-н;0036;022;000;000;0000;Area;201
Петропавловский;р-н;0036;023;000;000;0000;Area;201
Поворинский;р-н;0036;024;000;000;0000;Area;201
Подгоренский;р-н;0036;025;000;000;0000;Area;201
Рамонский;р-н;0036;026;000;000;0000;Area;201
Репьевский;р-н;0036;027;000;000;0000;Area;201
Россошанский;р-н;0036;028;000;000;0000;Area;201
Семилукский;р-н;0036;029;000;000;0000;Area;201
Таловский;р-н;0036;030;000;000;0000;Area;201
Терновский;р-н;0036;031;000;000;0000;Area;201
Хохольский;р-н;0036;032;000;000;0000;Area;201
Эртильский;р-н;0036;033;000;000;0000;Area;201
Ивановский;р-н;0037;001;000;000;0000;Area;201
Верхнеландеховский;р-н;0037;002;000;000;0000;Area;201
Вичугский;р-н;0037;003;000;000;0000;Area;201
Гаврилово-Посадский;р-н;0037;004;000;000;0000;Area;201
Заволжский;р-н;0037;005;000;000;0000;Area;201
Ильинский;р-н;0037;006;000;000;0000;Area;201
Кинешемский;р-н;0037;007;000;000;0000;Area;201
Комсомольский;р-н;0037;008;000;000;0000;Area;201
Лежневский;р-н;0037;009;000;000;0000;Area;201
Лухский;р-н;0037;010;000;000;0000;Area;201
Палехский;р-н;0037;011;000;000;0000;Area;201
Пестяковский;р-н;0037;012;000;000;0000;Area;201
Приволжский;р-н;0037;013;000;000;0000;Area;201
Пучежский;р-н;0037;014;000;000;0000;Area;201
Родниковский;р-н;0037;015;000;000;0000;Area;201
Савинский;р-н;0037;016;000;000;0000;Area;201
Тейковский;р-н;0037;017;000;000;0000;Area;201
Фурмановский;р-н;0037;018;000;000;0000;Area;201
Шуйский;р-н;0037;019;000;000;0000;Area;201
Южский;р-н;0037;020;000;000;0000;Area;201
Юрьевецкий;р-н;0037;021;000;000;0000;Area;201
Иркутский;р-н;0038;001;000;000;0000;Area;201
Ангарский;р-н;0038;002;000;000;0000;Area;201
Балаганский;р-н;0038;003;000;000;0000;Area;201
Бодайбинский;р-н;0038;004;000;000;0000;Area;201
Братский;р-н;0038;005;000;000;0000;Area;201
Жигаловский;р-н;0038;006;000;000;0000;Area;201
Заларинский;р-н;0038;007;000;000;0000;Area;201
Зиминский;р-н;0038;008;000;000;0000;Area;201
Казачинско-Ленский;р-н;0038;009;000;000;0000;Area;201
Катангский;р-н;0038;010;000;000;0000;Area;201
Качугский;р-н;0038;011;000;000;0000;Area;201
Киренский;р-н;0038;012;000;000;0000;Area;201
Куйтунский;р-н;0038;013;000;000;0000;Area;201
Мамско-Чуйский;р-н;0038;014;000;000;0000;Area;201
Нижнеилимский;р-н;0038;015;000;000;0000;Area;201
Нижнеудинский;р-н;0038;016;000;000;0000;Area;201
Ольхонский;р-н;0038;017;000;000;0000;Area;201
Слюдянский;р-н;0038;018;000;000;0000;Area;201
Тайшетский;р-н;0038;019;000;000;0000;Area;201
Тулунский;р-н;0038;020;000;000;0000;Area;201
Усольский;р-н;0038;021;000;000;0000;Area;201
Усть-Илимский;р-н;0038;022;000;000;0000;Area;201
Усть-Кутский;р-н;0038;023;000;000;0000;Area;201
Усть-Удинский;р-н;0038;024;000;000;0000;Area;201
Черемховский;р-н;0038;025;000;000;0000;Area;201
Чунский;р-н;0038;026;000;000;0000;Area;201
Шелеховский;р-н;0038;027;000;000;0000;Area;201
Усть-Ордынский;АО;0038;100;000;000;0000;Area;205
Аларский;р-н;0038;128;000;000;0000;Area;201
Баяндаевский;р-н;0038;129;000;000;0000;Area;201
Боханский;р-н;0038;130;000;000;0000;Area;201
Нукутский;р-н;0038;131;000;000;0000;Area;201
Осинский;р-н;0038;132;000;000;0000;Area;201
Эхирит-Булагатский;р-н;0038;133;000;000;0000;Area;201
Багратионовский;р-н;0039;002;000;000;0000;Area;201
Гвардейский;р-н;0039;003;000;000;0000;Area;201
Гурьевский;р-н;0039;004;000;000;0000;Area;201
Гусевский;р-н;0039;005;000;000;0000;Area;201
Зеленоградский;р-н;0039;006;000;000;0000;Area;201
Краснознаменский;р-н;0039;007;000;000;0000;Area;201
Неманский;р-н;0039;008;000;000;0000;Area;201
Нестеровский;р-н;0039;009;000;000;0000;Area;201
Озерский;р-н;0039;010;000;000;0000;Area;201
Полесский;р-н;0039;011;000;000;0000;Area;201
Правдинский;р-н;0039;012;000;000;0000;Area;201
Славский;р-н;0039;013;000;000;0000;Area;201
Черняховский;р-н;0039;014;000;000;0000;Area;201
Балтийский;р-н;0039;015;000;000;0000;Area;201
Светлогорский;р-н;0039;016;000;000;0000;Area;201
Бабынинский;р-н;0040;002;000;000;0000;Area;201
Барятинский;р-н;0040;003;000;000;0000;Area;201
Боровский;р-н;0040;004;000;000;0000;Area;201
Спас-Деменский;р-н;0040;005;000;000;0000;Area;201
Дзержинский;р-н;0040;006;000;000;0000;Area;201
Думиничский;р-н;0040;007;000;000;0000;Area;201
Жиздринский;р-н;0040;008;000;000;0000;Area;201
Жуковский;р-н;0040;009;000;000;0000;Area;201
Износковский;р-н;0040;010;000;000;0000;Area;201
Кировский;р-н;0040;011;000;000;0000;Area;201
Козельский;р-н;0040;012;000;000;0000;Area;201
Куйбышевский;р-н;0040;013;000;000;0000;Area;201
Людиновский;р-н;0040;014;000;000;0000;Area;201
Малоярославецкий;р-н;0040;015;000;000;0000;Area;201
Медынский;р-н;0040;016;000;000;0000;Area;201
Мещовский;р-н;0040;017;000;000;0000;Area;201
Мосальский;р-н;0040;018;000;000;0000;Area;201
Перемышльский;р-н;0040;019;000;000;0000;Area;201
Сухиничский;р-н;0040;020;000;000;0000;Area;201
Тарусский;р-н;0040;021;000;000;0000;Area;201
Ульяновский;р-н;0040;022;000;000;0000;Area;201
Ферзиковский;р-н;0040;023;000;000;0000;Area;201
Хвастовичский;р-н;0040;024;000;000;0000;Area;201
Юхновский;р-н;0040;025;000;000;0000;Area;201
Алеутский;р-н;0041;002;000;000;0000;Area;201
Быстринский;р-н;0041;003;000;000;0000;Area;201
Елизовский;р-н;0041;005;000;000;0000;Area;201
Мильковский;р-н;0041;006;000;000;0000;Area;201
Соболевский;р-н;0041;007;000;000;0000;Area;201
Усть-Большерецкий;р-н;0041;008;000;000;0000;Area;201
Усть-Камчатский;р-н;0041;009;000;000;0000;Area;201
Карагинский;р-н;0041;010;000;000;0000;Area;201
Олюторский;р-н;0041;011;000;000;0000;Area;201
Пенжинский;р-н;0041;012;000;000;0000;Area;201
Тигильский;р-н;0041;013;000;000;0000;Area;201
Кемеровский;р-н;0042;001;000;000;0000;Area;201
Беловский;р-н;0042;002;000;000;0000;Area;201
Гурьевский;р-н;0042;003;000;000;0000;Area;201
Ижморский;р-н;0042;004;000;000;0000;Area;201
Крапивинский;р-н;0042;005;000;000;0000;Area;201
Ленинск-Кузнецкий;р-н;0042;006;000;000;0000;Area;201
Мариинский;р-н;0042;007;000;000;0000;Area;201
Новокузнецкий;р-н;0042;009;000;000;0000;Area;201
Прокопьевский;р-н;0042;010;000;000;0000;Area;201
Промышленновский;р-н;0042;011;000;000;0000;Area;201
Таштагольский;р-н;0042;012;000;000;0000;Area;201
Тисульский;р-н;0042;013;000;000;0000;Area;201
Топкинский;р-н;0042;014;000;000;0000;Area;201
Тяжинский;р-н;0042;015;000;000;0000;Area;201
Чебулинский;р-н;0042;016;000;000;0000;Area;201
Юргинский;р-н;0042;017;000;000;0000;Area;201
Яйский;р-н;0042;018;000;000;0000;Area;201
Яшкинский;р-н;0042;019;000;000;0000;Area;201
Арбажский;р-н;0043;002;000;000;0000;Area;201
Афанасьевский;р-н;0043;003;000;000;0000;Area;201
Белохолуницкий;р-н;0043;004;000;000;0000;Area;201
Богородский;р-н;0043;005;000;000;0000;Area;201
Верхнекамский;р-н;0043;006;000;000;0000;Area;201
Верхошижемский;р-н;0043;007;000;000;0000;Area;201
Вятскополянский;р-н;0043;008;000;000;0000;Area;201
Даровской;р-н;0043;009;000;000;0000;Area;201
Зуевский;р-н;0043;010;000;000;0000;Area;201
Кикнурский;р-н;0043;011;000;000;0000;Area;201
Кильмезский;р-н;0043;012;000;000;0000;Area;201
Кирово-Чепецкий;р-н;0043;013;000;000;0000;Area;201
Котельничский;р-н;0043;014;000;000;0000;Area;201
Куменский;р-н;0043;015;000;000;0000;Area;201
Лебяжский;р-н;0043;016;000;000;0000;Area;201
Лузский;р-н;0043;017;000;000;0000;Area;201
Малмыжский;р-н;0043;018;000;000;0000;Area;201
Мурашинский;р-н;0043;019;000;000;0000;Area;201
Нагорский;р-н;0043;020;000;000;0000;Area;201
Немский;р-н;0043;021;000;000;0000;Area;201
Нолинский;р-н;0043;022;000;000;0000;Area;201
Омутнинский;р-н;0043;023;000;000;0000;Area;201
Опаринский;р-н;0043;024;000;000;0000;Area;201
Оричевский;р-н;0043;025;000;000;0000;Area;201
Орловский;р-н;0043;026;000;000;0000;Area;201
Халтуринский;р-н;0043;026;000;000;0000;Area;201
Пижанский;р-н;0043;027;000;000;0000;Area;201
Подосиновский;р-н;0043;028;000;000;0000;Area;201
Санчурский;р-н;0043;029;000;000;0000;Area;201
Свечинский;р-н;0043;030;000;000;0000;Area;201
Слободской;р-н;0043;031;000;000;0000;Area;201
Советский;р-н;0043;032;000;000;0000;Area;201
Сунский;р-н;0043;033;000;000;0000;Area;201
Тужинский;р-н;0043;034;000;000;0000;Area;201
Унинский;р-н;0043;035;000;000;0000;Area;201
Уржумский;р-н;0043;036;000;000;0000;Area;201
Фаленский;р-н;0043;037;000;000;0000;Area;201
Шабалинский;р-н;0043;038;000;000;0000;Area;201
Юрьянский;р-н;0043;039;000;000;0000;Area;201
Яранский;р-н;0043;040;000;000;0000;Area;201
Костромской;р-н;0044;001;000;000;0000;Area;201
Антроповский;р-н;0044;002;000;000;0000;Area;201
Буйский;р-н;0044;003;000;000;0000;Area;201
Вохомский;р-н;0044;004;000;000;0000;Area;201
Галичский;р-н;0044;005;000;000;0000;Area;201
Кадыйский;р-н;0044;006;000;000;0000;Area;201
Кологривский;р-н;0044;007;000;000;0000;Area;201
Красносельский;р-н;0044;008;000;000;0000;Area;201
Макарьевский;р-н;0044;009;000;000;0000;Area;201
Мантуровский;р-н;0044;010;000;000;0000;Area;201
Межевской;р-н;0044;011;000;000;0000;Area;201
Нейский;р-н;0044;012;000;000;0000;Area;201
Нерехтский;р-н;0044;013;000;000;0000;Area;201
Октябрьский;р-н;0044;014;000;000;0000;Area;201
Островский;р-н;0044;015;000;000;0000;Area;201
Павинский;р-н;0044;016;000;000;0000;Area;201
Парфеньевский;р-н;0044;017;000;000;0000;Area;201
Поназыревский;р-н;0044;018;000;000;0000;Area;201
Пыщугский;р-н;0044;019;000;000;0000;Area;201
Солигаличский;р-н;0044;020;000;000;0000;Area;201
Судиславский;р-н;0044;021;000;000;0000;Area;201
Сусанинский;р-н;0044;022;000;000;0000;Area;201
Чухломский;р-н;0044;023;000;000;0000;Area;201
Шарьинский;р-н;0044;024;000;000;0000;Area;201
Альменевский;р-н;0045;002;000;000;0000;Area;201
Белозерский;р-н;0045;003;000;000;0000;Area;201
Варгашинский;р-н;0045;004;000;000;0000;Area;201
Далматовский;р-н;0045;005;000;000;0000;Area;201
Звериноголовский;р-н;0045;006;000;000;0000;Area;201
Каргапольский;р-н;0045;007;000;000;0000;Area;201
Катайский;р-н;0045;008;000;000;0000;Area;201
Кетовский;р-н;0045;009;000;000;0000;Area;201
Куртамышский;р-н;0045;010;000;000;0000;Area;201
Лебяжьевский;р-н;0045;011;000;000;0000;Area;201
Макушинский;р-н;0045;012;000;000;0000;Area;201
Мишкинский;р-н;0045;013;000;000;0000;Area;201
Мокроусовский;р-н;0045;014;000;000;0000;Area;201
Петуховский;р-н;0045;015;000;000;0000;Area;201
Половинский;р-н;0045;016;000;000;0000;Area;201
Притобольный;р-н;0045;017;000;000;0000;Area;201
Сафакулевский;р-н;0045;018;000;000;0000;Area;201
Целинный;р-н;0045;019;000;000;0000;Area;201
Частоозерский;р-н;0045;020;000;000;0000;Area;201
Шадринский;р-н;0045;021;000;000;0000;Area;201
Шатровский;р-н;0045;022;000;000;0000;Area;201
Шумихинский;р-н;0045;023;000;000;0000;Area;201
Щучанский;р-н;0045;024;000;000;0000;Area;201
Юргамышский;р-н;0045;025;000;000;0000;Area;201
Беловский;р-н;0046;002;000;000;0000;Area;201
Большесолдатский;р-н;0046;003;000;000;0000;Area;201
Глушковский;р-н;0046;004;000;000;0000;Area;201
Горшеченский;р-н;0046;005;000;000;0000;Area;201
Дмитриевский;р-н;0046;006;000;000;0000;Area;201
Железногорский;р-н;0046;007;000;000;0000;Area;201
Золотухинский;р-н;0046;008;000;000;0000;Area;201
Касторенский;р-н;0046;009;000;000;0000;Area;201
Конышевский;р-н;0046;010;000;000;0000;Area;201
Кореневский;р-н;0046;011;000;000;0000;Area;201
Курчатовский;р-н;0046;012;000;000;0000;Area;201
Льговский;р-н;0046;013;000;000;0000;Area;201
Мантуровский;р-н;0046;014;000;000;0000;Area;201
Медвенский;р-н;0046;015;000;000;0000;Area;201
Обоянский;р-н;0046;016;000;000;0000;Area;201
Октябрьский;р-н;0046;017;000;000;0000;Area;201
Поныровский;р-н;0046;018;000;000;0000;Area;201
Пристенский;р-н;0046;019;000;000;0000;Area;201
Рыльский;р-н;0046;020;000;000;0000;Area;201
Советский;р-н;0046;021;000;000;0000;Area;201
Солнцевский;р-н;0046;022;000;000;0000;Area;201
Суджанский;р-н;0046;023;000;000;0000;Area;201
Тимский;р-н;0046;024;000;000;0000;Area;201
Фатежский;р-н;0046;025;000;000;0000;Area;201
Хомутовский;р-н;0046;026;000;000;0000;Area;201
Черемисиновский;р-н;0046;027;000;000;0000;Area;201
Щигровский;р-н;0046;028;000;000;0000;Area;201
Курский;р-н;0046;029;000;000;0000;Area;201
Бокситогорский;р-н;0047;002;000;000;0000;Area;201
Волосовский;р-н;0047;003;000;000;0000;Area;201
Волховский;р-н;0047;004;000;000;0000;Area;201
Всеволожский;р-н;0047;005;000;000;0000;Area;201
Выборгский;р-н;0047;006;000;000;0000;Area;201
Гатчинский;р-н;0047;007;000;000;0000;Area;201
Кингисеппский;р-н;0047;008;000;000;0000;Area;201
Киришский;р-н;0047;009;000;000;0000;Area;201
Кировский;р-н;0047;010;000;000;0000;Area;201
Лодейнопольский;р-н;0047;011;000;000;0000;Area;201
Ломоносовский;р-н;0047;012;000;000;0000;Area;201
Лужский;р-н;0047;013;000;000;0000;Area;201
Подпорожский;р-н;0047;014;000;000;0000;Area;201
Приозерский;р-н;0047;015;000;000;0000;Area;201
Сланцевский;р-н;0047;016;000;000;0000;Area;201
Тихвинский;р-н;0047;017;000;000;0000;Area;201
Тосненский;р-н;0047;018;000;000;0000;Area;201
Воловский;р-н;0048;002;000;000;0000;Area;201
Грязинский;р-н;0048;003;000;000;0000;Area;201
Данковский;р-н;0048;004;000;000;0000;Area;201
Добринский;р-н;0048;005;000;000;0000;Area;201
Добровский;р-н;0048;006;000;000;0000;Area;201
Долгоруковский;р-н;0048;007;000;000;0000;Area;201
Елецкий;р-н;0048;008;000;000;0000;Area;201
Задонский;р-н;0048;009;000;000;0000;Area;201
Измалковский;р-н;0048;010;000;000;0000;Area;201
Краснинский;р-н;0048;011;000;000;0000;Area;201
Лебедянский;р-н;0048;012;000;000;0000;Area;201
Лев-Толстовский;р-н;0048;013;000;000;0000;Area;201
Становлянский;р-н;0048;014;000;000;0000;Area;201
Тербунский;р-н;0048;015;000;000;0000;Area;201
Усманский;р-н;0048;016;000;000;0000;Area;201
Хлевенский;р-н;0048;017;000;000;0000;Area;201
Чаплыгинский;р-н;0048;018;000;000;0000;Area;201
Липецкий;р-н;0048;019;000;000;0000;Area;201
Ольский;р-н;0049;002;000;000;0000;Area;201
Омсукчанский;р-н;0049;003;000;000;0000;Area;201
Северо-Эвенский;р-н;0049;004;000;000;0000;Area;201
Среднеканский;р-н;0049;005;000;000;0000;Area;201
Сусуманский;р-н;0049;006;000;000;0000;Area;201
Тенькинский;р-н;0049;007;000;000;0000;Area;201
Хасынский;р-н;0049;008;000;000;0000;Area;201
Ягоднинский;р-н;0049;009;000;000;0000;Area;201
Балашихинский;р-н;0050;002;000;000;0000;Area;201
Волоколамский;р-н;0050;003;000;000;0000;Area;201
Воскресенский;р-н;0050;004;000;000;0000;Area;201
Дмитровский;р-н;0050;005;000;000;0000;Area;201
Домодедовский;р-н;0050;006;000;000;0000;Area;201
Егорьевский;р-н;0050;007;000;000;0000;Area;201
Зарайский;р-н;0050;008;000;000;0000;Area;201
Истринский;р-н;0050;009;000;000;0000;Area;201
Каширский;р-н;0050;010;000;000;0000;Area;201
Клинский;р-н;0050;011;000;000;0000;Area;201
Коломенский;р-н;0050;012;000;000;0000;Area;201
Красногорский;р-н;0050;013;000;000;0000;Area;201
Ленинский;р-н;0050;014;000;000;0000;Area;201
Лотошинский;р-н;0050;015;000;000;0000;Area;201
Луховицкий;р-н;0050;016;000;000;0000;Area;201
Люберецкий;р-н;0050;017;000;000;0000;Area;201
Можайский;р-н;0050;018;000;000;0000;Area;201
Мытищинский;р-н;0050;019;000;000;0000;Area;201
Наро-Фоминский;р-н;0050;020;000;000;0000;Area;201
Ногинский;р-н;0050;021;000;000;0000;Area;201
Одинцовский;р-н;0050;022;000;000;0000;Area;201
Озерский;р-н;0050;023;000;000;0000;Area;201
Орехово-Зуевский;р-н;0050;024;000;000;0000;Area;201
Павлово-Посадский;р-н;0050;025;000;000;0000;Area;201
Подольский;р-н;0050;026;000;000;0000;Area;201
Пушкинский;р-н;0050;027;000;000;0000;Area;201
Раменский;р-н;0050;028;000;000;0000;Area;201
Рузский;р-н;0050;029;000;000;0000;Area;201
Сергиево-Посадский;р-н;0050;030;000;000;0000;Area;201
Серебряно-Прудский;р-н;0050;031;000;000;0000;Area;201
Серпуховский;р-н;0050;032;000;000;0000;Area;201
Солнечногорский;р-н;0050;033;000;000;0000;Area;201
Ступинский;р-н;0050;034;000;000;0000;Area;201
Талдомский;р-н;0050;035;000;000;0000;Area;201
Химкинский;р-н;0050;036;000;000;0000;Area;201
Чеховский;р-н;0050;037;000;000;0000;Area;201
Шатурский;р-н;0050;038;000;000;0000;Area;201
Шаховской;р-н;0050;039;000;000;0000;Area;201
Щелковский;р-н;0050;040;000;000;0000;Area;201
Кандалакшский;р-н;0051;001;000;000;0000;Area;201
Ковдорский;р-н;0051;002;000;000;0000;Area;201
Кольский;р-н;0051;003;000;000;0000;Area;201
Ловозерский;р-н;0051;004;000;000;0000;Area;201
Печенгский;р-н;0051;005;000;000;0000;Area;201
Терский;р-н;0051;006;000;000;0000;Area;201
Ардатовский;р-н;0052;002;000;000;0000;Area;201
Арзамасский;р-н;0052;003;000;000;0000;Area;201
Балахнинский;р-н;0052;004;000;000;0000;Area;201
Богородский;р-н;0052;005;000;000;0000;Area;201
Большеболдинский;р-н;0052;006;000;000;0000;Area;201
Большемурашкинский;р-н;0052;007;000;000;0000;Area;201
Борский;р-н;0052;008;000;000;0000;Area;201
Бутурлинский;р-н;0052;009;000;000;0000;Area;201
Вадский;р-н;0052;010;000;000;0000;Area;201
Варнавинский;р-н;0052;011;000;000;0000;Area;201
Вачский;р-н;0052;012;000;000;0000;Area;201
Ветлужский;р-н;0052;013;000;000;0000;Area;201
Вознесенский;р-н;0052;014;000;000;0000;Area;201
Воротынский;р-н;0052;015;000;000;0000;Area;201
Володарский;р-н;0052;016;000;000;0000;Area;201
Воскресенский;р-н;0052;017;000;000;0000;Area;201
Выксунский;р-н;0052;018;000;000;0000;Area;201
Гагинский;р-н;0052;019;000;000;0000;Area;201
Городецкий;р-н;0052;020;000;000;0000;Area;201
Дальнеконстантиновский;р-н;0052;021;000;000;0000;Area;201
Дивеевский;р-н;0052;022;000;000;0000;Area;201
Княгининский;р-н;0052;023;000;000;0000;Area;201
Ковернинский;р-н;0052;024;000;000;0000;Area;201
Краснобаковский;р-н;0052;025;000;000;0000;Area;201
Краснооктябрьский;р-н;0052;026;000;000;0000;Area;201
Кстовский;р-н;0052;027;000;000;0000;Area;201
Кулебакский;р-н;0052;028;000;000;0000;Area;201
Лукояновский;р-н;0052;029;000;000;0000;Area;201
Лысковский;р-н;0052;030;000;000;0000;Area;201
Навашинский;р-н;0052;031;000;000;0000;Area;201
Павловский;р-н;0052;032;000;000;0000;Area;201
Первомайский;р-н;0052;033;000;000;0000;Area;201
Перевозский;р-н;0052;034;000;000;0000;Area;201
Пильнинский;р-н;0052;035;000;000;0000;Area;201
Починковский;р-н;0052;036;000;000;0000;Area;201
Семеновский;р-н;0052;037;000;000;0000;Area;201
Сергачский;р-н;0052;038;000;000;0000;Area;201
Сеченовский;р-н;0052;039;000;000;0000;Area;201
Сокольский;р-н;0052;040;000;000;0000;Area;201
Сосновский;р-н;0052;041;000;000;0000;Area;201
Спасский;р-н;0052;042;000;000;0000;Area;201
Тонкинский;р-н;0052;043;000;000;0000;Area;201
Тоншаевский;р-н;0052;044;000;000;0000;Area;201
Уренский;р-н;0052;045;000;000;0000;Area;201
Чкаловский;р-н;0052;046;000;000;0000;Area;201
Шарангский;р-н;0052;047;000;000;0000;Area;201
Шатковский;р-н;0052;048;000;000;0000;Area;201
Шахунский;р-н;0052;049;000;000;0000;Area;201
Новгородский;р-н;0053;001;000;000;0000;Area;201
Батецкий;р-н;0053;002;000;000;0000;Area;201
Боровичский;р-н;0053;003;000;000;0000;Area;201
Валдайский;р-н;0053;004;000;000;0000;Area;201
Волотовский;р-н;0053;005;000;000;0000;Area;201
Демянский;р-н;0053;006;000;000;0000;Area;201
Крестецкий;р-н;0053;007;000;000;0000;Area;201
Любытинский;р-н;0053;008;000;000;0000;Area;201
Маловишерский;р-н;0053;009;000;000;0000;Area;201
Марёвский;р-н;0053;010;000;000;0000;Area;201
Маревский;р-н;0053;010;000;000;0000;Area;201
Мошенской;р-н;0053;011;000;000;0000;Area;201
Окуловский;р-н;0053;012;000;000;0000;Area;201
Парфинский;р-н;0053;013;000;000;0000;Area;201
Пестовский;р-н;0053;014;000;000;0000;Area;201
Поддорский;р-н;0053;015;000;000;0000;Area;201
Солецкий;р-н;0053;016;000;000;0000;Area;201
Старорусский;р-н;0053;017;000;000;0000;Area;201
Хвойнинский;р-н;0053;018;000;000;0000;Area;201
Холмский;р-н;0053;019;000;000;0000;Area;201
Чудовский;р-н;0053;020;000;000;0000;Area;201
Шимский;р-н;0053;021;000;000;0000;Area;201
Новосибирский;р-н;0054;001;000;000;0000;Area;201
Баганский;р-н;0054;002;000;000;0000;Area;201
Барабинский;р-н;0054;003;000;000;0000;Area;201
Болотнинский;р-н;0054;004;000;000;0000;Area;201
Венгеровский;р-н;0054;005;000;000;0000;Area;201
Доволенский;р-н;0054;006;000;000;0000;Area;201
Здвинский;р-н;0054;007;000;000;0000;Area;201
Искитимский;р-н;0054;008;000;000;0000;Area;201
Карасукский;р-н;0054;009;000;000;0000;Area;201
Каргатский;р-н;0054;010;000;000;0000;Area;201
Колыванский;р-н;0054;011;000;000;0000;Area;201
Коченевский;р-н;0054;012;000;000;0000;Area;201
Кочковский;р-н;0054;013;000;000;0000;Area;201
Краснозерский;р-н;0054;014;000;000;0000;Area;201
Куйбышевский;р-н;0054;015;000;000;0000;Area;201
Купинский;р-н;0054;016;000;000;0000;Area;201
Кыштовский;р-н;0054;017;000;000;0000;Area;201
Маслянинский;р-н;0054;018;000;000;0000;Area;201
Мошковский;р-н;0054;019;000;000;0000;Area;201
Ордынский;р-н;0054;020;000;000;0000;Area;201
Северный;р-н;0054;021;000;000;0000;Area;201
Сузунский;р-н;0054;022;000;000;0000;Area;201
Татарский;р-н;0054;023;000;000;0000;Area;201
Тогучинский;р-н;0054;024;000;000;0000;Area;201
Убинский;р-н;0054;025;000;000;0000;Area;201
Усть-Таркский;р-н;0054;026;000;000;0000;Area;201
Чановский;р-н;0054;027;000;000;0000;Area;201
Черепановский;р-н;0054;028;000;000;0000;Area;201
Чистоозерный;р-н;0054;029;000;000;0000;Area;201
Чулымский;р-н;0054;030;000;000;0000;Area;201
Азовский немецкий национальный;р-н;0055;002;000;000;0000;Area;201
Большереченский;р-н;0055;003;000;000;0000;Area;201
Большеуковский;р-н;0055;004;000;000;0000;Area;201
Горьковский;р-н;0055;005;000;000;0000;Area;201
Знаменский;р-н;0055;006;000;000;0000;Area;201
Исилькульский;р-н;0055;007;000;000;0000;Area;201
Калачинский;р-н;0055;008;000;000;0000;Area;201
Колосовский;р-н;0055;009;000;000;0000;Area;201
Кормиловский;р-н;0055;010;000;000;0000;Area;201
Крутинский;р-н;0055;011;000;000;0000;Area;201
Любинский;р-н;0055;012;000;000;0000;Area;201
Марьяновский;р-н;0055;013;000;000;0000;Area;201
Москаленский;р-н;0055;014;000;000;0000;Area;201
Муромцевский;р-н;0055;015;000;000;0000;Area;201
Называевский;р-н;0055;016;000;000;0000;Area;201
Нижнеомский;р-н;0055;017;000;000;0000;Area;201
Нововаршавский;р-н;0055;018;000;000;0000;Area;201
Одесский;р-н;0055;019;000;000;0000;Area;201
Оконешниковский;р-н;0055;020;000;000;0000;Area;201
Омский;р-н;0055;021;000;000;0000;Area;201
Павлоградский;р-н;0055;022;000;000;0000;Area;201
Полтавский;р-н;0055;023;000;000;0000;Area;201
Русско-Полянский;р-н;0055;024;000;000;0000;Area;201
Саргатский;р-н;0055;025;000;000;0000;Area;201
Седельниковский;р-н;0055;026;000;000;0000;Area;201
Таврический;р-н;0055;027;000;000;0000;Area;201
Тарский;р-н;0055;028;000;000;0000;Area;201
Тевризский;р-н;0055;029;000;000;0000;Area;201
Тюкалинский;р-н;0055;030;000;000;0000;Area;201
Усть-Ишимский;р-н;0055;031;000;000;0000;Area;201
Черлакский;р-н;0055;032;000;000;0000;Area;201
Шербакульский;р-н;0055;033;000;000;0000;Area;201
Акбулакский;р-н;0056;002;000;000;0000;Area;201
Бугурусланский;р-н;0056;003;000;000;0000;Area;201
Гайский;р-н;0056;004;000;000;0000;Area;201
Сакмарский;р-н;0056;005;000;000;0000;Area;201
Сорочинский;р-н;0056;006;000;000;0000;Area;201
Тюльганский;р-н;0056;007;000;000;0000;Area;201
Ясненский;р-н;0056;008;000;000;0000;Area;201
Асекеевский;р-н;0056;009;000;000;0000;Area;201
Новоорский;р-н;0056;010;000;000;0000;Area;201
Первомайский;р-н;0056;011;000;000;0000;Area;201
Бузулукский;р-н;0056;012;000;000;0000;Area;201
Кувандыкский;р-н;0056;013;000;000;0000;Area;201
Саракташский;р-н;0056;014;000;000;0000;Area;201
Соль-Илецкий;р-н;0056;015;000;000;0000;Area;201
Курманаевский;р-н;0056;016;000;000;0000;Area;201
Тоцкий;р-н;0056;017;000;000;0000;Area;201
Северный;р-н;0056;018;000;000;0000;Area;201
Оренбургский;р-н;0056;019;000;000;0000;Area;201
Новосергиевский;р-н;0056;020;000;000;0000;Area;201
Грачевский;р-н;0056;021;000;000;0000;Area;201
Светлинский;р-н;0056;027;000;000;0000;Area;201
Матвеевский;р-н;0056;034;000;000;0000;Area;201
Переволоцкий;р-н;0056;040;000;000;0000;Area;201
Пономаревский;р-н;0056;041;000;000;0000;Area;201
Александровский;р-н;0056;042;000;000;0000;Area;201
Адамовский;р-н;0056;043;000;000;0000;Area;201
Беляевский;р-н;0056;045;000;000;0000;Area;201
Домбаровский;р-н;0056;046;000;000;0000;Area;201
Илекский;р-н;0056;047;000;000;0000;Area;201
Кваркенский;р-н;0056;048;000;000;0000;Area;201
Красногвардейский;р-н;0056;049;000;000;0000;Area;201
Шарлыкский;р-н;0056;050;000;000;0000;Area;201
Октябрьский;р-н;0056;051;000;000;0000;Area;201
Ташлинский;р-н;0056;054;000;000;0000;Area;201
Абдулинский;р-н;0056;055;000;000;0000;Area;201
Орловский;р-н;0057;001;000;000;0000;Area;201
Болховский;р-н;0057;002;000;000;0000;Area;201
Верховский;р-н;0057;003;000;000;0000;Area;201
Глазуновский;р-н;0057;004;000;000;0000;Area;201
Дмитровский;р-н;0057;005;000;000;0000;Area;201
Должанский;р-н;0057;006;000;000;0000;Area;201
Залегощенский;р-н;0057;007;000;000;0000;Area;201
Знаменский;р-н;0057;008;000;000;0000;Area;201
Колпнянский;р-н;0057;009;000;000;0000;Area;201
Корсаковский;р-н;0057;010;000;000;0000;Area;201
Краснозоренский;р-н;0057;011;000;000;0000;Area;201
Кромской;р-н;0057;012;000;000;0000;Area;201
Ливенский;р-н;0057;013;000;000;0000;Area;201
Малоархангельский;р-н;0057;014;000;000;0000;Area;201
Мценский;р-н;0057;015;000;000;0000;Area;201
Новодеревеньковский;р-н;0057;016;000;000;0000;Area;201
Новосильский;р-н;0057;017;000;000;0000;Area;201
Покровский;р-н;0057;018;000;000;0000;Area;201
Свердловский;р-н;0057;019;000;000;0000;Area;201
Сосковский;р-н;0057;020;000;000;0000;Area;201
Троснянский;р-н;0057;021;000;000;0000;Area;201
Урицкий;р-н;0057;022;000;000;0000;Area;201
Хотынецкий;р-н;0057;023;000;000;0000;Area;201
Шаблыкинский;р-н;0057;024;000;000;0000;Area;201
Башмаковский;р-н;0058;002;000;000;0000;Area;201
Спасский;р-н;0058;003;000;000;0000;Area;201
Беднодемьяновский;р-н;0058;003;000;000;0000;Area;201
Бековский;р-н;0058;004;000;000;0000;Area;201
Белинский;р-н;0058;005;000;000;0000;Area;201
Бессоновский;р-н;0058;006;000;000;0000;Area;201
Вадинский;р-н;0058;007;000;000;0000;Area;201
Городищенский;р-н;0058;008;000;000;0000;Area;201
Земетчинский;р-н;0058;009;000;000;0000;Area;201
Иссинский;р-н;0058;010;000;000;0000;Area;201
Каменский;р-н;0058;011;000;000;0000;Area;201
Камешкирский;р-н;0058;012;000;000;0000;Area;201
Колышлейский;р-н;0058;013;000;000;0000;Area;201
Кондольский;р-н;0058;014;000;000;0000;Area;201
Кузнецкий;р-н;0058;015;000;000;0000;Area;201
Лопатинский;р-н;0058;016;000;000;0000;Area;201
Лунинский;р-н;0058;017;000;000;0000;Area;201
Малосердобинский;р-н;0058;018;000;000;0000;Area;201
Мокшанский;р-н;0058;019;000;000;0000;Area;201
Наровчатский;р-н;0058;020;000;000;0000;Area;201
Неверкинский;р-н;0058;021;000;000;0000;Area;201
Нижнеломовский;р-н;0058;022;000;000;0000;Area;201
Никольский;р-н;0058;023;000;000;0000;Area;201
Пачелмский;р-н;0058;024;000;000;0000;Area;201
Сердобский;р-н;0058;025;000;000;0000;Area;201
Сосновоборский;р-н;0058;026;000;000;0000;Area;201
Тамалинский;р-н;0058;027;000;000;0000;Area;201
Шемышейский;р-н;0058;028;000;000;0000;Area;201
Пензенский;р-н;0058;029;000;000;0000;Area;201
Бардымский;р-н;0059;002;000;000;0000;Area;201
Березовский;р-н;0059;003;000;000;0000;Area;201
Большесосновский;р-н;0059;004;000;000;0000;Area;201
Верещагинский;р-н;0059;005;000;000;0000;Area;201
Горнозаводский;р-н;0059;006;000;000;0000;Area;201
Еловский;р-н;0059;007;000;000;0000;Area;201
Ильинский;р-н;0059;008;000;000;0000;Area;201
Карагайский;р-н;0059;009;000;000;0000;Area;201
Кишертский;р-н;0059;010;000;000;0000;Area;201
Куединский;р-н;0059;011;000;000;0000;Area;201
Кунгурский;р-н;0059;012;000;000;0000;Area;201
Красновишерский;р-н;0059;013;000;000;0000;Area;201
Нытвенский;р-н;0059;014;000;000;0000;Area;201
Октябрьский;р-н;0059;015;000;000;0000;Area;201
Осинский;р-н;0059;016;000;000;0000;Area;201
Ординский;р-н;0059;017;000;000;0000;Area;201
Оханский;р-н;0059;018;000;000;0000;Area;201
Очерский;р-н;0059;019;000;000;0000;Area;201
Пермский;р-н;0059;020;000;000;0000;Area;201
Сивинский;р-н;0059;021;000;000;0000;Area;201
Соликамский;р-н;0059;022;000;000;0000;Area;201
Суксунский;р-н;0059;023;000;000;0000;Area;201
Усольский;р-н;0059;024;000;000;0000;Area;201
Уинский;р-н;0059;025;000;000;0000;Area;201
Частинский;р-н;0059;026;000;000;0000;Area;201
Чердынский;р-н;0059;027;000;000;0000;Area;201
Чернушинский;р-н;0059;028;000;000;0000;Area;201
Гайнский;р-н;0059;029;000;000;0000;Area;201
Косинский;р-н;0059;030;000;000;0000;Area;201
Кочевский;р-н;0059;031;000;000;0000;Area;201
Кудымкарский;р-н;0059;032;000;000;0000;Area;201
Юрлинский;р-н;0059;033;000;000;0000;Area;201
Юсьвинский;р-н;0059;034;000;000;0000;Area;201
Краснокамский;р-н;0059;035;000;000;0000;Area;201
Бежаницкий;р-н;0060;002;000;000;0000;Area;201
Великолукский;р-н;0060;003;000;000;0000;Area;201
Гдовский;р-н;0060;004;000;000;0000;Area;201
Дедовичский;р-н;0060;005;000;000;0000;Area;201
Дновский;р-н;0060;006;000;000;0000;Area;201
Красногородский;р-н;0060;007;000;000;0000;Area;201
Куньинский;р-н;0060;008;000;000;0000;Area;201
Локнянский;р-н;0060;009;000;000;0000;Area;201
Невельский;р-н;0060;010;000;000;0000;Area;201
Новоржевский;р-н;0060;011;000;000;0000;Area;201
Новосокольнический;р-н;0060;012;000;000;0000;Area;201
Опочецкий;р-н;0060;013;000;000;0000;Area;201
Островский;р-н;0060;014;000;000;0000;Area;201
Палкинский;р-н;0060;015;000;000;0000;Area;201
Печорский;р-н;0060;016;000;000;0000;Area;201
Плюсский;р-н;0060;017;000;000;0000;Area;201
Порховский;р-н;0060;018;000;000;0000;Area;201
Пустошкинский;р-н;0060;019;000;000;0000;Area;201
Пушкиногорский;р-н;0060;020;000;000;0000;Area;201
Пыталовский;р-н;0060;021;000;000;0000;Area;201
Себежский;р-н;0060;022;000;000;0000;Area;201
Струго-Красненский;р-н;0060;023;000;000;0000;Area;201
Стругокрасненский;р-н;0060;023;000;000;0000;Area;201
Усвятский;р-н;0060;024;000;000;0000;Area;201
Псковский;р-н;0060;025;000;000;0000;Area;201
Азовский;р-н;0061;002;000;000;0000;Area;201
Аксайский;р-н;0061;003;000;000;0000;Area;201
Багаевский;р-н;0061;004;000;000;0000;Area;201
Белокалитвинский;р-н;0061;005;000;000;0000;Area;201
Боковский;р-н;0061;006;000;000;0000;Area;201
Верхнедонской;р-н;0061;007;000;000;0000;Area;201
Веселовский;р-н;0061;008;000;000;0000;Area;201
Волгодонской;р-н;0061;009;000;000;0000;Area;201
Дубовский;р-н;0061;010;000;000;0000;Area;201
Егорлыкский;р-н;0061;011;000;000;0000;Area;201
Заветинский;р-н;0061;012;000;000;0000;Area;201
Зерноградский;р-н;0061;013;000;000;0000;Area;201
Зимовниковский;р-н;0061;014;000;000;0000;Area;201
Кагальницкий;р-н;0061;015;000;000;0000;Area;201
Каменский;р-н;0061;016;000;000;0000;Area;201
Кашарский;р-н;0061;017;000;000;0000;Area;201
Константиновский;р-н;0061;018;000;000;0000;Area;201
Красносулинский;р-н;0061;019;000;000;0000;Area;201
Куйбышевский;р-н;0061;020;000;000;0000;Area;201
Мартыновский;р-н;0061;021;000;000;0000;Area;201
Матвеево-Курганский;р-н;0061;022;000;000;0000;Area;201
Миллеровский;р-н;0061;023;000;000;0000;Area;201
Милютинский;р-н;0061;024;000;000;0000;Area;201
Морозовский;р-н;0061;025;000;000;0000;Area;201
Мясниковский;р-н;0061;026;000;000;0000;Area;201
Неклиновский;р-н;0061;027;000;000;0000;Area;201
Обливский;р-н;0061;028;000;000;0000;Area;201
Октябрьский;р-н;0061;029;000;000;0000;Area;201
Орловский;р-н;0061;030;000;000;0000;Area;201
Песчанокопский;р-н;0061;031;000;000;0000;Area;201
Пролетарский;р-н;0061;032;000;000;0000;Area;201
Ремонтненский;р-н;0061;033;000;000;0000;Area;201
Родионово-Несветайский;р-н;0061;034;000;000;0000;Area;201
Сальский;р-н;0061;035;000;000;0000;Area;201
Семикаракорский;р-н;0061;036;000;000;0000;Area;201
Советский;р-н;0061;037;000;000;0000;Area;201
Тарасовский;р-н;0061;038;000;000;0000;Area;201
Тацинский;р-н;0061;039;000;000;0000;Area;201
Усть-Донецкий;р-н;0061;040;000;000;0000;Area;201
Целинский;р-н;0061;041;000;000;0000;Area;201
Цимлянский;р-н;0061;042;000;000;0000;Area;201
Чертковский;р-н;0061;043;000;000;0000;Area;201
Шолоховский;р-н;0061;044;000;000;0000;Area;201
Рязанский;р-н;0062;001;000;000;0000;Area;201
Ермишинский;р-н;0062;002;000;000;0000;Area;201
Захаровский;р-н;0062;003;000;000;0000;Area;201
Кадомский;р-н;0062;004;000;000;0000;Area;201
Касимовский;р-н;0062;005;000;000;0000;Area;201
Клепиковский;р-н;0062;006;000;000;0000;Area;201
Кораблинский;р-н;0062;007;000;000;0000;Area;201
Милославский;р-н;0062;008;000;000;0000;Area;201
Михайловский;р-н;0062;009;000;000;0000;Area;201
Александро-Невский;р-н;0062;010;000;000;0000;Area;201
Новодеревенский;р-н;0062;010;000;000;0000;Area;201
Пителинский;р-н;0062;011;000;000;0000;Area;201
Пронский;р-н;0062;012;000;000;0000;Area;201
Путятинский;р-н;0062;013;000;000;0000;Area;201
Рыбновский;р-н;0062;014;000;000;0000;Area;201
Ряжский;р-н;0062;015;000;000;0000;Area;201
Сапожковский;р-н;0062;016;000;000;0000;Area;201
Сараевский;р-н;0062;017;000;000;0000;Area;201
Сасовский;р-н;0062;018;000;000;0000;Area;201
Скопинский;р-н;0062;019;000;000;0000;Area;201
Спасский;р-н;0062;020;000;000;0000;Area;201
Старожиловский;р-н;0062;021;000;000;0000;Area;201
Ухоловский;р-н;0062;022;000;000;0000;Area;201
Чучковский;р-н;0062;023;000;000;0000;Area;201
Шацкий;р-н;0062;024;000;000;0000;Area;201
Шиловский;р-н;0062;025;000;000;0000;Area;201
Алексеевский;р-н;0063;002;000;000;0000;Area;201
Безенчукский;р-н;0063;003;000;000;0000;Area;201
Богатовский;р-н;0063;004;000;000;0000;Area;201
Большеглушицкий;р-н;0063;005;000;000;0000;Area;201
Большечерниговский;р-н;0063;006;000;000;0000;Area;201
Борский;р-н;0063;007;000;000;0000;Area;201
Елховский;р-н;0063;008;000;000;0000;Area;201
Исаклинский;р-н;0063;009;000;000;0000;Area;201
Камышлинский;р-н;0063;010;000;000;0000;Area;201
Кинель-Черкасский;р-н;0063;011;000;000;0000;Area;201
Кинельский;р-н;0063;012;000;000;0000;Area;201
Клявлинский;р-н;0063;013;000;000;0000;Area;201
Кошкинский;р-н;0063;014;000;000;0000;Area;201
Красноармейский;р-н;0063;015;000;000;0000;Area;201
Красноярский;р-н;0063;016;000;000;0000;Area;201
Нефтегорский;р-н;0063;017;000;000;0000;Area;201
Пестравский;р-н;0063;018;000;000;0000;Area;201
Похвистневский;р-н;0063;019;000;000;0000;Area;201
Приволжский;р-н;0063;020;000;000;0000;Area;201
Сергиевский;р-н;0063;021;000;000;0000;Area;201
Ставропольский;р-н;0063;022;000;000;0000;Area;201
Сызранский;р-н;0063;023;000;000;0000;Area;201
Хворостянский;р-н;0063;024;000;000;0000;Area;201
Челно-Вершинский;р-н;0063;025;000;000;0000;Area;201
Шенталинский;р-н;0063;026;000;000;0000;Area;201
Шигонский;р-н;0063;027;000;000;0000;Area;201
Волжский;р-н;0063;028;000;000;0000;Area;201
Саратовский;р-н;0064;001;000;000;0000;Area;201
Александрово-Гайский;р-н;0064;002;000;000;0000;Area;201
Аркадакский;р-н;0064;003;000;000;0000;Area;201
Аткарский;р-н;0064;004;000;000;0000;Area;201
Базарно-Карабулакский;р-н;0064;005;000;000;0000;Area;201
Балаковский;р-н;0064;006;000;000;0000;Area;201
Балашовский;р-н;0064;007;000;000;0000;Area;201
Балтайский;р-н;0064;008;000;000;0000;Area;201
Вольский;р-н;0064;009;000;000;0000;Area;201
Воскресенский;р-н;0064;010;000;000;0000;Area;201
Дергачевский;р-н;0064;011;000;000;0000;Area;201
Духовницкий;р-н;0064;012;000;000;0000;Area;201
Екатериновский;р-н;0064;013;000;000;0000;Area;201
Ершовский;р-н;0064;014;000;000;0000;Area;201
Ивантеевский;р-н;0064;015;000;000;0000;Area;201
Калининский;р-н;0064;016;000;000;0000;Area;201
Красноармейский;р-н;0064;017;000;000;0000;Area;201
Краснокутский;р-н;0064;018;000;000;0000;Area;201
Краснопартизанский;р-н;0064;019;000;000;0000;Area;201
Лысогорский;р-н;0064;020;000;000;0000;Area;201
Марксовский;р-н;0064;021;000;000;0000;Area;201
Новобурасский;р-н;0064;022;000;000;0000;Area;201
Новоузенский;р-н;0064;023;000;000;0000;Area;201
Озинский;р-н;0064;024;000;000;0000;Area;201
Перелюбский;р-н;0064;025;000;000;0000;Area;201
Петровский;р-н;0064;026;000;000;0000;Area;201
Питерский;р-н;0064;027;000;000;0000;Area;201
Пугачевский;р-н;0064;028;000;000;0000;Area;201
Ровенский;р-н;0064;029;000;000;0000;Area;201
Романовский;р-н;0064;030;000;000;0000;Area;201
Ртищевский;р-н;0064;031;000;000;0000;Area;201
Самойловский;р-н;0064;032;000;000;0000;Area;201
Советский;р-н;0064;034;000;000;0000;Area;201
Татищевский;р-н;0064;035;000;000;0000;Area;201
Турковский;р-н;0064;036;000;000;0000;Area;201
Федоровский;р-н;0064;037;000;000;0000;Area;201
Хвалынский;р-н;0064;038;000;000;0000;Area;201
Энгельсский;р-н;0064;039;000;000;0000;Area;201
Анивский;р-н;0065;002;000;000;0000;Area;201
Долинский;р-н;0065;003;000;000;0000;Area;201
Корсаковский;р-н;0065;004;000;000;0000;Area;201
Курильский;р-н;0065;005;000;000;0000;Area;201
Макаровский;р-н;0065;006;000;000;0000;Area;201
Невельский;р-н;0065;007;000;000;0000;Area;201
Ногликский;р-н;0065;008;000;000;0000;Area;201
Охинский;р-н;0065;009;000;000;0000;Area;201
Поронайский;р-н;0065;010;000;000;0000;Area;201
Северо-Курильский;р-н;0065;011;000;000;0000;Area;201
Смирныховский;р-н;0065;012;000;000;0000;Area;201
Томаринский;р-н;0065;013;000;000;0000;Area;201
Тымовский;р-н;0065;014;000;000;0000;Area;201
Углегорский;р-н;0065;015;000;000;0000;Area;201
Холмский;р-н;0065;016;000;000;0000;Area;201
Южно-Курильский;р-н;0065;017;000;000;0000;Area;201
Александровск-Сахалинский;р-н;0065;018;000;000;0000;Area;201
Алапаевский;р-н;0066;002;000;000;0000;Area;201
Артемовский;р-н;0066;003;000;000;0000;Area;201
Артинский;р-н;0066;004;000;000;0000;Area;201
Ачитский;р-н;0066;005;000;000;0000;Area;201
Байкаловский;р-н;0066;006;000;000;0000;Area;201
Белоярский;р-н;0066;007;000;000;0000;Area;201
Богдановичский;р-н;0066;008;000;000;0000;Area;201
Верхнесалдинский;р-н;0066;009;000;000;0000;Area;201
Верхотурский;р-н;0066;010;000;000;0000;Area;201
Гаринский;р-н;0066;011;000;000;0000;Area;201
Ирбитский;р-н;0066;012;000;000;0000;Area;201
Каменский;р-н;0066;013;000;000;0000;Area;201
Камышловский;р-н;0066;014;000;000;0000;Area;201
Красноуфимский;р-н;0066;015;000;000;0000;Area;201
Невьянский;р-н;0066;016;000;000;0000;Area;201
Нижнесергинский;р-н;0066;017;000;000;0000;Area;201
Новолялинский;р-н;0066;018;000;000;0000;Area;201
Пригородный;р-н;0066;019;000;000;0000;Area;201
Пышминский;р-н;0066;020;000;000;0000;Area;201
Режевской;р-н;0066;021;000;000;0000;Area;201
Режевский;р-н;0066;021;000;000;0000;Area;201
Серовский;р-н;0066;022;000;000;0000;Area;201
Слободо-Туринский;р-н;0066;023;000;000;0000;Area;201
Сухоложский;р-н;0066;024;000;000;0000;Area;201
Сысертский;р-н;0066;025;000;000;0000;Area;201
Таборинский;р-н;0066;026;000;000;0000;Area;201
Тавдинский;р-н;0066;027;000;000;0000;Area;201
Талицкий;р-н;0066;028;000;000;0000;Area;201
Тугулымский;р-н;0066;029;000;000;0000;Area;201
Туринский;р-н;0066;030;000;000;0000;Area;201
Шалинский;р-н;0066;031;000;000;0000;Area;201
Смоленский;р-н;0067;001;000;000;0000;Area;201
Велижский;р-н;0067;002;000;000;0000;Area;201
Вяземский;р-н;0067;003;000;000;0000;Area;201
Гагаринский;р-н;0067;004;000;000;0000;Area;201
Глинковский;р-н;0067;005;000;000;0000;Area;201
Демидовский;р-н;0067;006;000;000;0000;Area;201
Дорогобужский;р-н;0067;007;000;000;0000;Area;201
Духовщинский;р-н;0067;008;000;000;0000;Area;201
Ельнинский;р-н;0067;009;000;000;0000;Area;201
Ершичский;р-н;0067;010;000;000;0000;Area;201
Кардымовский;р-н;0067;011;000;000;0000;Area;201
Краснинский;р-н;0067;012;000;000;0000;Area;201
Монастырщинский;р-н;0067;013;000;000;0000;Area;201
Новодугинский;р-н;0067;014;000;000;0000;Area;201
Починковский;р-н;0067;015;000;000;0000;Area;201
Рославльский;р-н;0067;016;000;000;0000;Area;201
Руднянский;р-н;0067;017;000;000;0000;Area;201
Сафоновский;р-н;0067;018;000;000;0000;Area;201
Сычевский;р-н;0067;019;000;000;0000;Area;201
Темкинский;р-н;0067;020;000;000;0000;Area;201
Угранский;р-н;0067;021;000;000;0000;Area;201
Хиславичский;р-н;0067;022;000;000;0000;Area;201
Холм-Жирковский;р-н;0067;023;000;000;0000;Area;201
Шумячский;р-н;0067;024;000;000;0000;Area;201
Ярцевский;р-н;0067;025;000;000;0000;Area;201
Тамбовский;р-н;0068;001;000;000;0000;Area;201
Бондарский;р-н;0068;002;000;000;0000;Area;201
Гавриловский;р-н;0068;003;000;000;0000;Area;201
Жердевский;р-н;0068;004;000;000;0000;Area;201
Знаменский;р-н;0068;005;000;000;0000;Area;201
Инжавинский;р-н;0068;006;000;000;0000;Area;201
Кирсановский;р-н;0068;007;000;000;0000;Area;201
Мичуринский;р-н;0068;008;000;000;0000;Area;201
Мордовский;р-н;0068;009;000;000;0000;Area;201
Моршанский;р-н;0068;010;000;000;0000;Area;201
Мучкапский;р-н;0068;012;000;000;0000;Area;201
Никифоровский;р-н;0068;013;000;000;0000;Area;201
Первомайский;р-н;0068;014;000;000;0000;Area;201
Петровский;р-н;0068;015;000;000;0000;Area;201
Пичаевский;р-н;0068;016;000;000;0000;Area;201
Рассказовский;р-н;0068;017;000;000;0000;Area;201
Ржаксинский;р-н;0068;018;000;000;0000;Area;201
Сампурский;р-н;0068;019;000;000;0000;Area;201
Сосновский;р-н;0068;020;000;000;0000;Area;201
Староюрьевский;р-н;0068;021;000;000;0000;Area;201
Токаревский;р-н;0068;022;000;000;0000;Area;201
Уваровский;р-н;0068;023;000;000;0000;Area;201
Уметский;р-н;0068;024;000;000;0000;Area;201
Калининский;р-н;0069;001;000;000;0000;Area;201
Андреапольский;р-н;0069;002;000;000;0000;Area;201
Бежецкий;р-н;0069;003;000;000;0000;Area;201
Бельский;р-н;0069;004;000;000;0000;Area;201
Бологовский;р-н;0069;005;000;000;0000;Area;201
Весьегонский;р-н;0069;006;000;000;0000;Area;201
Вышневолоцкий;р-н;0069;007;000;000;0000;Area;201
Жарковский;р-н;0069;008;000;000;0000;Area;201
Западнодвинский;р-н;0069;009;000;000;0000;Area;201
Зубцовский;р-н;0069;010;000;000;0000;Area;201
Калязинский;р-н;0069;011;000;000;0000;Area;201
Кашинский;р-н;0069;012;000;000;0000;Area;201
Кесовогорский;р-н;0069;013;000;000;0000;Area;201
Кимрский;р-н;0069;014;000;000;0000;Area;201
Конаковский;р-н;0069;015;000;000;0000;Area;201
Краснохолмский;р-н;0069;016;000;000;0000;Area;201
Кувшиновский;р-н;0069;017;000;000;0000;Area;201
Лесной;р-н;0069;018;000;000;0000;Area;201
Лихославльский;р-н;0069;019;000;000;0000;Area;201
Максатихинский;р-н;0069;020;000;000;0000;Area;201
Молоковский;р-н;0069;021;000;000;0000;Area;201
Нелидовский;р-н;0069;022;000;000;0000;Area;201
Оленинский;р-н;0069;023;000;000;0000;Area;201
Осташковский;р-н;0069;024;000;000;0000;Area;201
Пеновский;р-н;0069;025;000;000;0000;Area;201
Рамешковский;р-н;0069;026;000;000;0000;Area;201
Ржевский;р-н;0069;027;000;000;0000;Area;201
Сандовский;р-н;0069;028;000;000;0000;Area;201
Селижаровский;р-н;0069;029;000;000;0000;Area;201
Сонковский;р-н;0069;030;000;000;0000;Area;201
Спировский;р-н;0069;031;000;000;0000;Area;201
Старицкий;р-н;0069;032;000;000;0000;Area;201
Торжокский;р-н;0069;033;000;000;0000;Area;201
Торопецкий;р-н;0069;034;000;000;0000;Area;201
Удомельский;р-н;0069;035;000;000;0000;Area;201
Фировский;р-н;0069;036;000;000;0000;Area;201
Александровский;р-н;0070;002;000;000;0000;Area;201
Асиновский;р-н;0070;003;000;000;0000;Area;201
Бакчарский;р-н;0070;004;000;000;0000;Area;201
Верхнекетский;р-н;0070;005;000;000;0000;Area;201
Зырянский;р-н;0070;006;000;000;0000;Area;201
Каргасокский;р-н;0070;007;000;000;0000;Area;201
Кожевниковский;р-н;0070;008;000;000;0000;Area;201
Колпашевский;р-н;0070;009;000;000;0000;Area;201
Кривошеинский;р-н;0070;010;000;000;0000;Area;201
Молчановский;р-н;0070;011;000;000;0000;Area;201
Парабельский;р-н;0070;012;000;000;0000;Area;201
Первомайский;р-н;0070;013;000;000;0000;Area;201
Тегульдетский;р-н;0070;014;000;000;0000;Area;201
Чаинский;р-н;0070;015;000;000;0000;Area;201
Шегарский;р-н;0070;016;000;000;0000;Area;201
Томский;р-н;0070;017;000;000;0000;Area;201
Алексинский;р-н;0071;002;000;000;0000;Area;201
Арсеньевский;р-н;0071;003;000;000;0000;Area;201
Белевский;р-н;0071;004;000;000;0000;Area;201
Богородицкий;р-н;0071;005;000;000;0000;Area;201
Веневский;р-н;0071;006;000;000;0000;Area;201
Воловский;р-н;0071;007;000;000;0000;Area;201
Дубенский;р-н;0071;009;000;000;0000;Area;201
Ефремовский;р-н;0071;010;000;000;0000;Area;201
Заокский;р-н;0071;011;000;000;0000;Area;201
Каменский;р-н;0071;012;000;000;0000;Area;201
Кимовский;р-н;0071;013;000;000;0000;Area;201
Киреевский;р-н;0071;014;000;000;0000;Area;201
Куркинский;р-н;0071;015;000;000;0000;Area;201
Ленинский;р-н;0071;016;000;000;0000;Area;201
Новомосковский;р-н;0071;017;000;000;0000;Area;201
Одоевский;р-н;0071;018;000;000;0000;Area;201
Плавский;р-н;0071;019;000;000;0000;Area;201
Суворовский;р-н;0071;020;000;000;0000;Area;201
Тепло-Огаревский;р-н;0071;021;000;000;0000;Area;201
Узловский;р-н;0071;022;000;000;0000;Area;201
Чернский;р-н;0071;023;000;000;0000;Area;201
Щекинский;р-н;0071;024;000;000;0000;Area;201
Ясногорский;р-н;0071;025;000;000;0000;Area;201
Тюменский;р-н;0072;001;000;000;0000;Area;201
Абатский;р-н;0072;002;000;000;0000;Area;201
Армизонский;р-н;0072;003;000;000;0000;Area;201
Аромашевский;р-н;0072;004;000;000;0000;Area;201
Бердюжский;р-н;0072;005;000;000;0000;Area;201
Вагайский;р-н;0072;006;000;000;0000;Area;201
Викуловский;р-н;0072;007;000;000;0000;Area;201
Голышмановский;р-н;0072;008;000;000;0000;Area;201
Заводоуковский;р-н;0072;009;000;000;0000;Area;201
Исетский;р-н;0072;010;000;000;0000;Area;201
Ишимский;р-н;0072;011;000;000;0000;Area;201
Казанский;р-н;0072;012;000;000;0000;Area;201
Нижнетавдинский;р-н;0072;013;000;000;0000;Area;201
Омутинский;р-н;0072;014;000;000;0000;Area;201
Сладковский;р-н;0072;015;000;000;0000;Area;201
Сорокинский;р-н;0072;016;000;000;0000;Area;201
Тобольский;р-н;0072;017;000;000;0000;Area;201
Уватский;р-н;0072;018;000;000;0000;Area;201
Упоровский;р-н;0072;019;000;000;0000;Area;201
Юргинский;р-н;0072;020;000;000;0000;Area;201
Ялуторовский;р-н;0072;021;000;000;0000;Area;201
Ярковский;р-н;0072;022;000;000;0000;Area;201
Ульяновский;р-н;0073;001;000;000;0000;Area;201
Базарносызганский;р-н;0073;002;000;000;0000;Area;201
Барышский;р-н;0073;003;000;000;0000;Area;201
Вешкаймский;р-н;0073;004;000;000;0000;Area;201
Инзенский;р-н;0073;005;000;000;0000;Area;201
Карсунский;р-н;0073;006;000;000;0000;Area;201
Кузоватовский;р-н;0073;007;000;000;0000;Area;201
Майнский;р-н;0073;008;000;000;0000;Area;201
Мелекесский;р-н;0073;009;000;000;0000;Area;201
Николаевский;р-н;0073;010;000;000;0000;Area;201
Новомалыклинский;р-н;0073;011;000;000;0000;Area;201
Новоспасский;р-н;0073;012;000;000;0000;Area;201
Павловский;р-н;0073;013;000;000;0000;Area;201
Радищевский;р-н;0073;014;000;000;0000;Area;201
Сенгилеевский;р-н;0073;015;000;000;0000;Area;201
Старокулаткинский;р-н;0073;016;000;000;0000;Area;201
Старомайнский;р-н;0073;017;000;000;0000;Area;201
Сурский;р-н;0073;018;000;000;0000;Area;201
Тереньгульский;р-н;0073;019;000;000;0000;Area;201
Цильнинский;р-н;0073;020;000;000;0000;Area;201
Чердаклинский;р-н;0073;021;000;000;0000;Area;201
Ашинский;р-н;0074;002;000;000;0000;Area;201
Карталинский;р-н;0074;007;000;000;0000;Area;201
Каслинский;р-н;0074;009;000;000;0000;Area;201
Катав-Ивановский;р-н;0074;010;000;000;0000;Area;201
Саткинский;р-н;0074;017;000;000;0000;Area;201
Агаповский;р-н;0074;025;000;000;0000;Area;201
Аргаяшский;р-н;0074;026;000;000;0000;Area;201
Брединский;р-н;0074;027;000;000;0000;Area;201
Варненский;р-н;0074;028;000;000;0000;Area;201
Верхнеуральский;р-н;0074;029;000;000;0000;Area;201
Еткульский;р-н;0074;030;000;000;0000;Area;201
Кизильский;р-н;0074;031;000;000;0000;Area;201
Красноармейский;р-н;0074;032;000;000;0000;Area;201
Кунашакский;р-н;0074;033;000;000;0000;Area;201
Кусинский;р-н;0074;034;000;000;0000;Area;201
Нагайбакский;р-н;0074;035;000;000;0000;Area;201
Нязепетровский;р-н;0074;036;000;000;0000;Area;201
Октябрьский;р-н;0074;037;000;000;0000;Area;201
Сосновский;р-н;0074;038;000;000;0000;Area;201
Троицкий;р-н;0074;039;000;000;0000;Area;201
Увельский;р-н;0074;040;000;000;0000;Area;201
Уйский;р-н;0074;041;000;000;0000;Area;201
Чебаркульский;р-н;0074;042;000;000;0000;Area;201
Чесменский;р-н;0074;043;000;000;0000;Area;201
Еманжелинский;р-н;0074;044;000;000;0000;Area;201
Коркинский;р-н;0074;045;000;000;0000;Area;201
Пластовский;р-н;0074;046;000;000;0000;Area;201
Читинский;р-н;0075;001;000;000;0000;Area;201
Акшинский;р-н;0075;002;000;000;0000;Area;201
Александрово-Заводский;р-н;0075;003;000;000;0000;Area;201
Балейский;р-н;0075;004;000;000;0000;Area;201
Борзинский;р-н;0075;005;000;000;0000;Area;201
Газимуро-Заводский;р-н;0075;006;000;000;0000;Area;201
Забайкальский;р-н;0075;007;000;000;0000;Area;201
Каларский;р-н;0075;008;000;000;0000;Area;201
Калганский;р-н;0075;009;000;000;0000;Area;201
Карымский;р-н;0075;010;000;000;0000;Area;201
Краснокаменский;р-н;0075;011;000;000;0000;Area;201
Красночикойский;р-н;0075;012;000;000;0000;Area;201
Кыринский;р-н;0075;013;000;000;0000;Area;201
Могочинский;р-н;0075;014;000;000;0000;Area;201
Нерчинский;р-н;0075;015;000;000;0000;Area;201
Нерчинско-Заводский;р-н;0075;016;000;000;0000;Area;201
Оловяннинский;р-н;0075;017;000;000;0000;Area;201
Ононский;р-н;0075;018;000;000;0000;Area;201
Петровск-Забайкальский;р-н;0075;019;000;000;0000;Area;201
Приаргунский;р-н;0075;020;000;000;0000;Area;201
Сретенский;р-н;0075;021;000;000;0000;Area;201
Тунгиро-Олекминский;р-н;0075;022;000;000;0000;Area;201
Тунгокоченский;р-н;0075;023;000;000;0000;Area;201
Улетовский;р-н;0075;024;000;000;0000;Area;201
Хилокский;р-н;0075;025;000;000;0000;Area;201
Чернышевский;р-н;0075;026;000;000;0000;Area;201
Шелопугинский;р-н;0075;027;000;000;0000;Area;201
Шилкинский;р-н;0075;028;000;000;0000;Area;201
Агинский Бурятский;АО;0075;100;000;000;0000;Area;205
Агинский;р-н;0075;129;000;000;0000;Area;201
Дульдургинский;р-н;0075;130;000;000;0000;Area;201
Могойтуйский;р-н;0075;131;000;000;0000;Area;201
Ярославский;р-н;0076;001;000;000;0000;Area;201
Большесельский;р-н;0076;002;000;000;0000;Area;201
Борисоглебский;р-н;0076;003;000;000;0000;Area;201
Брейтовский;р-н;0076;004;000;000;0000;Area;201
Гаврилов-Ямский;р-н;0076;005;000;000;0000;Area;201
Даниловский;р-н;0076;006;000;000;0000;Area;201
Любимский;р-н;0076;007;000;000;0000;Area;201
Мышкинский;р-н;0076;008;000;000;0000;Area;201
Некоузский;р-н;0076;009;000;000;0000;Area;201
Некрасовский;р-н;0076;010;000;000;0000;Area;201
Первомайский;р-н;0076;011;000;000;0000;Area;201
Переславский;р-н;0076;012;000;000;0000;Area;201
Пошехонский;р-н;0076;013;000;000;0000;Area;201
Ростовский;р-н;0076;014;000;000;0000;Area;201
Рыбинский;р-н;0076;015;000;000;0000;Area;201
Тутаевский;р-н;0076;016;000;000;0000;Area;201
Угличский;р-н;0076;017;000;000;0000;Area;201
Внуковское;п;0077;001;000;000;0000;Area;206
Вороновское;п;0077;002;000;000;0000;Area;206
Воскресенское;п;0077;003;000;000;0000;Area;206
Десеновское;п;0077;004;000;000;0000;Area;206
Киевский;п;0077;005;000;000;0000;Area;206
Кленовское;п;0077;006;000;000;0000;Area;206
Кокошкино;п;0077;007;000;000;0000;Area;206
Краснопахорское;п;0077;008;000;000;0000;Area;206
Марушкинское;п;0077;009;000;000;0000;Area;206
Михайлово-Ярцевское;п;0077;010;000;000;0000;Area;206
Московский;п;0077;011;000;000;0000;Area;206
Мосрентген;п;0077;012;000;000;0000;Area;206
Новофедоровское;п;0077;013;000;000;0000;Area;206
Первомайское;п;0077;014;000;000;0000;Area;206
Роговское;п;0077;015;000;000;0000;Area;206
Рязановское;п;0077;016;000;000;0000;Area;206
Сосенское;п;0077;017;000;000;0000;Area;206
Филимонковское;п;0077;018;000;000;0000;Area;206
Щаповское;п;0077;019;000;000;0000;Area;206
Биробиджанский;р-н;0079;001;000;000;0000;Area;201
Ленинский;р-н;0079;002;000;000;0000;Area;201
Облученский;р-н;0079;003;000;000;0000;Area;201
Октябрьский;р-н;0079;004;000;000;0000;Area;201
Смидовичский;р-н;0079;005;000;000;0000;Area;201
Агинский;р-н;0080;001;000;000;0000;Area;201
Дульдургинский;р-н;0080;002;000;000;0000;Area;201
Могойтуйский;р-н;0080;003;000;000;0000;Area;201
Кудымкарский;р-н;0081;001;000;000;0000;Area;201
Гайнский;р-н;0081;002;000;000;0000;Area;201
Юсьвинский;р-н;0081;003;000;000;0000;Area;201
Юрлинский;р-н;0081;004;000;000;0000;Area;201
Кочевский;р-н;0081;005;000;000;0000;Area;201
Косинский;р-н;0081;006;000;000;0000;Area;201
Карагинский;р-н;0082;002;000;000;0000;Area;201
Олюторский;р-н;0082;003;000;000;0000;Area;201
Пенжинский;р-н;0082;004;000;000;0000;Area;201
Тигильский;р-н;0082;005;000;000;0000;Area;201
Заполярный;р-н;0083;001;000;000;0000;Area;201
Диксонский;р-н;0084;002;000;000;0000;Area;201
Усть-Енисейский;р-н;0084;003;000;000;0000;Area;201
Хатангский;р-н;0084;004;000;000;0000;Area;201
Эхирит-Булагатский;р-н;0085;001;000;000;0000;Area;201
Аларский;р-н;0085;002;000;000;0000;Area;201
Баяндаевский;р-н;0085;003;000;000;0000;Area;201
Боханский;р-н;0085;004;000;000;0000;Area;201
Нукутский;р-н;0085;005;000;000;0000;Area;201
Осинский;р-н;0085;006;000;000;0000;Area;201
Белоярский;р-н;0086;002;000;000;0000;Area;201
Березовский;р-н;0086;003;000;000;0000;Area;201
Кондинский;р-н;0086;004;000;000;0000;Area;201
Нефтеюганский;р-н;0086;005;000;000;0000;Area;201
Нижневартовский;р-н;0086;006;000;000;0000;Area;201
Октябрьский;р-н;0086;007;000;000;0000;Area;201
Советский;р-н;0086;008;000;000;0000;Area;201
Сургутский;р-н;0086;009;000;000;0000;Area;201
Ханты-Мансийский;р-н;0086;010;000;000;0000;Area;201
Беринговский;р-н;0087;002;000;000;0000;Area;201
Билибинский;р-н;0087;003;000;000;0000;Area;201
Иультинский;р-н;0087;004;000;000;0000;Area;201
Провиденский;р-н;0087;005;000;000;0000;Area;201
Чаунский;р-н;0087;006;000;000;0000;Area;201
Чукотский;р-н;0087;007;000;000;0000;Area;201
Шмидтовский;р-н;0087;008;000;000;0000;Area;201
Анадырский;р-н;0087;009;000;000;0000;Area;201
Илимпийский;р-н;0088;001;000;000;0000;Area;201
Байкитский;р-н;0088;002;000;000;0000;Area;201
Тунгусско-Чунский;р-н;0088;003;000;000;0000;Area;201
Красноселькупский;р-н;0089;002;000;000;0000;Area;201
Приуральский;р-н;0089;003;000;000;0000;Area;201
Пуровский;р-н;0089;004;000;000;0000;Area;201
Тазовский;р-н;0089;005;000;000;0000;Area;201
Шурышкарский;р-н;0089;006;000;000;0000;Area;201
Ямальский;р-н;0089;007;000;000;0000;Area;201
Надымский;р-н;0089;008;000;000;0000;Area;201
Бахчисарайский;р-н;0091;001;000;000;0000;Area;201
Белогорский;р-н;0091;002;000;000;0000;Area;201
Джанкойский;р-н;0091;003;000;000;0000;Area;201
Кировский;р-н;0091;004;000;000;0000;Area;201
Красногвардейский;р-н;0091;005;000;000;0000;Area;201
Красноперекопский;р-н;0091;006;000;000;0000;Area;201
Ленинский;р-н;0091;007;000;000;0000;Area;201
Нижнегорский;р-н;0091;008;000;000;0000;Area;201
Первомайский;р-н;0091;009;000;000;0000;Area;201
Раздольненский;р-н;0091;010;000;000;0000;Area;201
Сакский;р-н;0091;011;000;000;0000;Area;201
Симферопольский;р-н;0091;012;000;000;0000;Area;201
Советский;р-н;0091;013;000;000;0000;Area;201
Черноморский;р-н;0091;014;000;000;0000;Area;201
